Name,Address,Latitude,Longitude,Phone,Website,Yelp,IG,FB,City,Region,Cuisine,African,Caribbean,American,Southern,Barbecue,Dessert,Beverages,OtherCuisine,Service,Takeout,Delivery,Catering,Temporarily Closed,OtherService
Veg on the Edge,"725 Front St, Santa Cruz, CA 95060",36.974736,-122.02558,(831) 423-3000,https://vegontheedge.com/,https://www.yelp.com/biz/veg-on-the-edge-santa-cruz,https://www.instagram.com/veg_ontheedge,https://www.facebook.com/thevedgeontheedge/,Santa Cruz,South Bay,"West African, Vegan",Y,,,,,,,Y,Takeout,Y,,,,
Reggae Pot,"15495 Los Gatos Blvd, Los Gatos, CA 95032",37.244093,-121.960749,(408) 827-4597,https://reggaepot.com/,https://www.yelp.com/biz/reggae-pot-los-gatos,https://www.instagram.com/explore/locations/1024929905/reggae-pot-jamaican-restaurant,https://www.facebook.com/reggaepotlg/,Los Gatos,South Bay,Jamaican,,Y,,,,,,,Takeout,Y,,,,
Jubba Somali Restaurant,"5330 Terner Way, San Jose, CA 95136",37.257378,-121.861097,(408) 440-1504,,https://www.yelp.com/biz/jubba-restaurant-san-jose,,https://www.facebook.com/pages/category/Ethiopian-Restaurant/Jubba-Restaurant-549626968448404/,San Jose,South Bay,Somali,Y,,,,,,,,"Takeout, Delivery",Y,Y,,,
Back a Yard Caribbean Grill,"1740 S Winchester Blvd, Campbell, CA 95008",37.292312,-121.949432,(408) 866-2666,backayard.net,https://www.yelp.com/biz/back-a-yard-caribbean-grill-campbell,https://www.instagram.com/backayardgrill,,Campbell,South Bay,Caribbean,,Y,,,,,,,"Takeout, Delivery",Y,Y,,,
Back a Yard Caribbean Grill,"1011 E Capitol Expy, San Jose, CA 95121",37.299905,-121.824238,(408) 960-6330,backayard.net,https://www.yelp.com/biz/back-a-yard-san-jose-3,https://www.instagram.com/backayardgrill,https://www.facebook.com/backayardcapitol/,San Jose (Capitol Expressway),South Bay,Caribbean,,Y,,,,,,,"Takeout, Delivery",Y,Y,,,
Zeni Ethiopian Restaurant,"1320 Saratoga Ave, San Jose, CA 95129",37.300229,-121.980523,(408) 615-8282,https://zeniethiopianrestaurant.com/,https://www.yelp.com/biz/zeni-ethiopian-restaurant-san-jose,https://www.instagram.com/zeniethiopian,https://www.facebook.com/ZeniEthiopian/,San Jose,South Bay,Ethiopian,Y,,,,,,,,"Takeout, Delivery",Y,Y,,,
Walia Ethiopian Cuisine,"2208 Business Cir, San Jose, CA 95128",37.322361,-121.932552,(408) 645-5001,http://waliaethiopian.com/,https://www.yelp.com/biz/walia-ethiopian-cuisine-san-jose,https://www.instagram.com/walia_ethiopian,https://www.facebook.com/waliaethiopian/,San Jose,South Bay,Ethiopian,Y,,,,,,,,"Takeout, Catering",Y,,Y,,
Lunch Box,"1876 W San Carlos St, San Jose, CA 95128",37.323231,-121.927754,(408) 287-3511,,https://www.yelp.com/biz/lunch-box-san-jose-2,,,San Jose,South Bay,Ethiopian,Y,,,,,,,,"Takeout, Delivery",Y,Y,,,
Gojo Ethiopian,"1261 W San Carlos St, San Jose, CA 95126",37.323818,-121.91079,(408) 295-9546,http://gojoethiopianrestaurant.com/,https://www.yelp.com/biz/gojo-ethiopian-restaurant-san-jose-2,,https://www.facebook.com/pages/category/Ethiopian-Restaurant/Gojo-Ethiopian-Restaurant-124599994303682/,San Jose,South Bay,Ethiopian,Y,,,,,,,,"Takeout, Delivery",Y,Y,,,
Kategna Ethiopian,"1663 W San Carlos St, San Jose, CA 95128",37.323966,-121.921046,(408) 216-9695,www.kategna.com/,https://www.yelp.com/biz/kategna-ethiopian-restaurant-san-jose,https://www.instagram.com/kategnarestaurant,https://www.facebook.com/kategna/,San Jose,South Bay,Ethiopian,Y,,,,,,,,"Takeout, Delivery",Y,Y,,,
Mudai,"503 W San Carlos St, San Jose, CA 95126",37.325922,-121.898852,(408) 292-2282,www.mudaiethiopiansanjose.com,https://www.yelp.com/biz/mudai-ethiopian-restaurant-san-jose,https://z-p42.www.instagram.com/mudaiethiopiansj/,https://www.facebook.com/mudaiethiopian/,San Jose,South Bay,Ethiopian,Y,,,,,,,,"Takeout, Delivery",Y,Y,,,
Back a Yard Caribbean Grill,"80 N Market St, San Jose, CA 95113",37.336732,-121.892598,(408) 294-8626,backayard.net,https://www.yelp.com/biz/back-a-yard-san-jose,https://www.instagram.com/backayardgrill,https://www.facebook.com/pages/category/Caribbean-Restaurant/Back-A-Yard-249345095218904/,San Jose,South Bay,Caribbean,,Y,,,,,,,"Takeout, Delivery",Y,Y,,,
Jackie's Place,"655 N 6th St, San Jose, CA 95112",37.350352,-121.894364,(408) 490-4653,www.jackiecaters.com/,https://www.yelp.com/biz/jackies-place-san-jose,https://www.instagram.com/jackiesplacesj,https://www.facebook.com/JackiesPlaceSJ/,San Jose,South Bay,Southern,,,,Y,,,,,Temporarily Closed,,,,Y,
Back a Yard Caribbean Grill,"638 N 13th St, San Jose, CA 95112",37.353938,-121.886536,(408) 380-4192,backayard.net,https://www.yelp.com/biz/back-a-yard-san-jose-4,https://www.instagram.com/backayardgrill,https://www.facebook.com/pages/Back-A-Yard-Carribean-Grill-Inc/224082808188751,San Jose (North),South Bay,Caribbean,,Y,,,,,,,"Takeout, Delivery",Y,Y,,,
LeYou Ethiopian,"1100 N 1st St, San Jose, CA 95112",37.356534,-121.905496,(408) 320-2620,https://leyou-sj.com/,https://www.yelp.com/biz/leyou-ethiopian-san-jose,https://www.instagram.com/leyouethiopian,https://www.facebook.com/leyouethiopian/,San Jose,South Bay,Ethiopian,Y,,,,,,,,"Takeout, Delivery",Y,Y,,,
The Cookout,"1350 Pear Ave, Mountain View, CA 94043",37.415994,-122.0763,(650) 300-9945,,https://www.yelp.com/biz/the-cookout-food-truck-mountain-view-3,https://www.instagram.com/thecookoutft,www.facebook.com/thecookoutft,Mountain View,South Bay,Southern,,,,Y,,,,,Takeout,Y,,,,
Coconuts Caribbean,"642 Ramona St, Palo Alto, CA 94301",37.44381,-122.16027,(650) 329-9533,www.coconutspaloalto.com/,https://www.yelp.com/biz/coconuts-caribbean-restaurant-and-bar-palo-alto,https://www.instagram.com/coconutspaloalto,https://www.facebook.com/coconutscaribbean/,Palo Alto,South Bay,Jamaican,,Y,,,,,,,"Takeout, Delivery",Y,Y,,,
Fenn Coffee,"60 Middlefield Rd, Menlo Park, CA 94025",37.454491,-122.163317,(650) 322-743,https://fenncoffee.com/,https://www.facebook.com/fenncoffee/,https://www.instagram.com/fenncoffee,https://www.yelp.com/biz/fenn-coffee-menlo-park,Menlo Park,Peninsula,Coffee,,,,,,,Y,,Delivery,,Y,,,
Back a Yard Caribbean Grill,"1189 Willow Rd, Menlo Park, CA 94025",37.472798,-122.155046,(650) 323-4244,backayard.net,https://www.yelp.com/biz/back-a-yard-caribbean-american-grill-menlo-park,https://www.instagram.com/backayardgrill,https://www.facebook.com/backayardmenlopark/,Menlo Park,Peninsula,Caribbean,,Y,,,,,,,"Takeout, Delivery",Y,Y,,,
Carmen & Family BBQ,"41986 Fremont Blvd, Fremont, California 94538",37.524412,-121.957331,(510) 657-5464,http://carmenandfamilybbq.com/,https://www.yelp.com/biz/carmen-and-family-bar-b-q-fremont,https://www.instagram.com/carmen_and_family_bbq,https://www.facebook.com/carmenbbqfremont/,Fremont,East Bay,Barbecue,,,,,Y,,,,"Takeout, Delivery",Y,Y,,,
Haleluya Ethiopian Gourmet,"4144 Walnut Ave, Fremont, CA 94538",37.543996,-121.983321,(510) 270-8310,,https://www.yelp.com/biz/haleluya-ethiopian-gourmet-fremont,,www.facebook.com/pages/category/Ethiopian-Restaurant/Haleluya-Ethiopian-Gourmet-114027840290429/,Fremont,East Bay,Ethiopian,Y,,,,,,,,Takeout,Y,,,,
Claire's Crunch Cake,"233 N Grant St, San Mateo, CA 94401",37.57483,-122.323755,(650) 344-8690,https://clairescrunchcake.wixsite.com/cakes,https://www.yelp.com/biz/claires-crunch-cake-san-mateo,https://www.instagram.com/clairescrunchcakes,https://www.facebook.com/ClairesCrunchCake/,San Mateo,Peninsula,Dessert,,,,,,Y,,,Takeout,Y,,,,
Cafe Capuchino,"1158 Capuchino Ave, Burlingame, CA 94010",37.584807,-122.365375,(650) 342-2669,,https://www.yelp.com/biz/cafe-capuchino-burlingame,,,Burlingame,Peninsula,Coffee,,,,,,,Y,,Takeout,Y,,,,
Hippies Brew,"3900 Smith St, Union City, CA 94587",37.59635,-122.07907,(510) 461-8629,www.hippiesbrew.com/,https://www.yelp.com/biz/hippies-brew-union-city-2,https://www.instagram.com/hippiesbrew,https://www.facebook.com/HippiesBrew/,Union City,East Bay,Coffee,,,,,,,Y,,Takeout,Y,,,,
Pure Juice & Smoothie Lounge,"3902 Smith St, Union City, CA 94586",37.596361,-122.079133,(510) 400-9033,www.purejuiceandsmoothie.com/,https://www.yelp.com/biz/pure-juice-and-smoothie-lounge-union-city,https://www.instagram.com/purejuicelounge,https://www.facebook.com/purejuiceandsmoothielounge,Union City,East Bay,Juice,,,,,,,Y,,Takeout,Y,,,,
Birdhaus Beer Garden,"3821 Smith St, Union City, CA 94587",37.596809,-122.077422,,www.birdhausbeergarden.com,https://www.yelp.com/biz/birdhaus-beer-garden-union-city-3,https://www.instagram.com/birdhausbeergarden,https://www.facebook.com/BirdhausBeerGarden/,Union City,East Bay,American,,,Y,,,,,,Takeout,Y,,,,
Pop's Deli & Grill,"30982 Huntwood Ave, Hayward, CA 94544",37.61223,-122.05429,(510) 471-1502,www.popsdeliandgrill.com,https://www.yelp.com/biz/pops-deli-and-grill-hayward,,https://www.facebook.com/popsdeliandgrill/,Hayward,East Bay,American,,,Y,,,,,,Takeout,Y,,,,
The Famous Rib Shack,"223 El Camino Real, San Bruno, CA 94066",37.618461,-122.409731,(650) 952-2809,,https://www.yelp.com/biz/the-famous-rib-shack-san-bruno-2,https://www.instagram.com/thefamousribshack,https://www.facebook.com/pages/category/Barbecue-Restaurant/The-Famous-Rib-Shack-154981091229993/,San Bruno,Peninsula,Barbecue,,,,,Y,,,,Takeout,Y,,,,
Just Potato Salad,"29587 Mission Blvd, Hayward, CA 94544",37.630096,-122.048012,(510) 753-9667,,https://www.yelp.com/biz/just-potato-salad-hayward,https://www.instagram.com/explore/locations/146935492406761/just-potato-salad,https://www.facebook.com/justpotatosalad/,Hayward,East Bay,Barbecue,,,,,Y,,,,Takeout,Y,,,,
Shampa's Pies,"1625 Palmetto Ave, Pacifica, CA 94044",37.636127,-122.491897,(415) 412-3592,www.shampaspies.com/,https://www.yelp.com/biz/shampas-pies-pacifica,https://www.instagram.com/shampas_pies,https://www.facebook.com/shampaspies/,Pacifica,Peninsula,Dessert,,,,,,Y,,,Takeout,Y,,,,
Flavas Jamaican Grill,"314 Linden Ave, South San Francisco, CA 94080",37.655706,-122.409765,(650) 244-9785,https://flavasjamaicangrillsf.com/,https://www.yelp.com/biz/flavas-jamaican-grill-south-san-francisco,,https://www.facebook.com/FlavasJamaicanGrillSF,South San Francisco,Peninsula,Jamaican,,Y,,,,,,,"Takeout, Delivery",Y,Y,,,
Family House of Fish & Poultry,"25140 Mission Blvd, Hayward, CA 94544",37.658215,-122.072133,(510) 886-4112,,https://www.yelp.com/biz/family-house-of-fish-and-poultry-hayward,,www.facebook.com/Family-House-of-Fish-and-Poultry-147661838584980/,Hayward,East Bay,Southern,,,,Y,,,,,Takeout,Y,,,,
Oyo,"680 Main St, Pleasanton, CA 94566",37.662555,-121.87448,(925) 249-5936,oyopleasanton.com,https://www.yelp.com/biz/oyo-pleasanton-2,https://www.instagram.com/oyopleasanton,https://www.facebook.com/oyopleasanton/,Pleasanton,East Bay,Caribbean,,Y,,,,,,,"Takeout, Delivery",Y,Y,,,
Carmen & Family BBQ,"692 W A St, Hayward, CA 94545",37.665701,-122.112923,(510) 887-1979,http://carmenandfamilybbq.com/,https://www.yelp.com/biz/carmen-and-family-bar-b-q-hayward,https://www.instagram.com/carmen_and_family_bbq,https://www.facebook.com/pages/category/American-Restaurant/Carmen-Family-Bar-B-Q-113556578667817/,Hayward,East Bay,Barbecue,,,,,Y,,,,"Takeout, Delivery",Y,Y,,,
Hippies Brew,"888 C St, Hayward, CA 94541",37.670579,-122.083283,(510) 461-8629,www.hippiesbrew.com/,https://www.yelp.com/biz/hippies-brew-express-hayward-2,https://www.instagram.com/hippiesbrew,https://www.facebook.com/HippiesBrew/,Hayward,East Bay,Coffee,,,,,,,Y,,Takeout,Y,,,,
PL&atildeYT,"1036 B St, Hayward, CA 94541",37.67351,-122.08219,(510) 888-1092,http://playtonb.com/,https://www.yelp.com/biz/playt-hayward-2,https://www.instagram.com/playthayward,https://www.facebook.com/playthayward/,Hayward,East Bay,Southern,,,,Y,,,,,"Takeout, Delivery",Y,Y,,,
Reuschelle's Cheesecakes,"974 A St, Hayward, CA 94541",37.673851,-122.084176,(510) 219-2997,www.reuschelles.com/,https://www.yelp.com/biz/reuschelles-cheesecakes-hayward-3,https://www.instagram.com/reuschelles,https://www.facebook.com/Reuschelles/,Hayward,East Bay,Dessert,,,,,,Y,,,Delivery,,Y,,,
Golden Safari,"22431 Foothill Blvd, Hayward, CA 94541",37.676313,-122.082893,(510) 460-9625,https://goldensafari.net/,https://www.yelp.com/biz/golden-safari-hayward,https://www.instagram.com/goldensafari_restaurant,https://www.facebook.com/GoldenSafariRestaurant/,Hayward,East Bay,Nigerian,Y,,,,,,,,"Takeout, Delivery",Y,Y,,,
Keith's Chicken and Waffles,"270 San Pedro Rd, Daly City, CA 94014",37.686902,-122.469652,(415) 347-7208,www.keithschickennwaffles.com,https://www.yelp.com/biz/keiths-chicken-n-waffles-daly-city,https://www.instagram.com/keithschickenandwaffles,https://www.facebook.com/Keithschickenandwaffles/,Daly City,Peninsula,Southern,,,,Y,,,,,Takeout,Y,,,,
Red's House,"25 Washington St, Daly City, CA 94014",37.687719,-122.469352,(415) 562-7538,www.eatreds.com,https://www.yelp.com/biz/reds-house-sf-daly-city-2,https://www.instagram.com/redshousesf,,Daly City,Peninsula,Caribbean,,Y,,,,,,,"Takeout, Delivery",Y,Y,,,
Andreamarie Cakes,"16395 E 14th St, San Leandro, CA 94578",37.694772,-122.113918,(925) 255-6438,www.andreamariecakes.com,https://www.yelp.com/biz/andreamarie-custom-cakes-and-treats-san-leandro,https://www.instagram.com/andreamariecakes19,https://www.facebook.com/andreamariecakes/,San Leandro,East Bay,Dessert,,,,,,Y,,,Catering,,,Y,,
I Am Cafe,"16395 E 14th St C, San Leandro, CA 94578",37.694772,-122.113918,(510) 747-8662,www.iamashland.com/,https://www.yelp.com/biz/i-am-cafe-san-leandro-3,https://www.instagram.com/iamcafe_ashland,https://www.facebook.com/iamcafeashland/,San Leandro,East Bay,Southern,,,,Y,,,,,Takeout,Y,,,,
Theo’s CheeseSteak Shop,"15696 E 14th St, San Leandro, CA 94578",37.701945,-122.123378,(510) 674-9224,www.theoscheesesteak.com/,https://www.yelp.com/biz/theos-cheesesteak-shop-san-leandro-2,https://www.instagram.com/explore/locations/1622012/theos-cheesesteak-shop,https://www.facebook.com/Theos-Cheesesteak-Shop-111445962255659/?rf=443542916094642,San Leandro,East Bay,American,,,Y,,,,,,"Takeout, Delivery",Y,Y,,,
Pinx Catering,"1933 Davis St, San Leandro, CA 94577",37.716728,-122.180069,(855) 984-7469,www.pinxcatering.com/,https://www.yelp.com/biz/pinx-san-leandro-2,https://www.instagram.com/pinxcatering,https://www.facebook.com/pages/category/Caterer/Pinx-Catering-162204197184127/,San Leandro,East Bay,Global,,,,,,,,Y,"Delivery, Catering",,Y,Y,,
Kendejah Restaurant,"197 Pelton Center Way, San Leandro, CA 94577",37.722606,-122.154658,(510) 756-6049,http://kendejahrestaurant.com/,https://www.yelp.com/biz/kendejah-restaurant-san-leandro,https://www.instagram.com/kendejah_ca,https://www.facebook.com/KendejahRestaurant/,San Leandro,East Bay,Liberian,Y,,,,,,,,"Takeout, Delivery",Y,Y,,,
Excelsior Coffee,"4495 Mission St, San Francisco, CA 94112",37.726273,-122.433311,(415) 347-7333,www.xlcrsf.com,https://www.yelp.com/biz/excelsior-coffee-san-francisco,https://www.instagram.com/excelsiorcoffeesf,https://www.facebook.com/excelsiorcoffeesf/,San Francisco (Excelsior),San Francisco,Coffee,,,,,,,Y,,Takeout,Y,,,,
Cafe Envy,"1701 Yosemite Ave, San Francisco, CA 94124",37.727845,-122.393751,(415) 800-7394,,https://www.yelp.com/biz/cafe-envy-san-francisco,https://www.instagram.com/cafe_envy_sf,www.facebook.com/CafeEnvySF/,San Francisco (Bayview),San Francisco,Californian,,,Y,,,,,,Temporarily Closed,,,,Y,
Scends,"635 E 14th St, San Leandro, CA 94577",37.730435,-122.160519,(510) 567-3955,www.scendsrestaurant.com/,https://www.yelp.com/biz/scends-restaurant-san-leandro-2,,https://www.facebook.com/pages/category/Chicken-Joint/Scends-Restaurant-114157538608447/,San Leandro,East Bay,Southern,,,,Y,,,,,"Takeout, Delivery",Y,Y,,,
Frisco Fried,"5176 3rd St, San Francisco, CA 94124",37.731116,-122.392354,(415) 822-1517,http://friscofried.biz/,https://www.yelp.com/biz/frisco-fried-san-francisco,https://www.instagram.com/friscofried,https://www.facebook.com/FriscoFried/,San Francisco (Bayview),San Francisco,Southern,,,,Y,,,,,"Takeout, Delivery",Y,Y,,,
Let's Eat BBQ,"5130 3rd St, San Francisco, CA 94124",37.731856,-122.391964,(415) 822-2881,,https://www.yelp.com/biz/lets-eat-bbq-and-more-san-francisco,,https://www.facebook.com/pages/category/Barbecue-Restaurant/Lets-Eat-BBQ-More-144830652247764/,San Francisco (Bayview),San Francisco,Barbecue,,,,,Y,,,,Temporarily Closed,,,,Y,
Yvonne's Southern Sweets,"5128 3rd St, San Francisco, CA 94124",37.7319,-122.391943,(415) 368-7900,www.yvonnessouthernsweets.com/,https://www.yelp.com/biz/yvonnes-southern-sweets-san-francisco,https://www.instagram.com/yvonnessouthernsweets,https://www.facebook.com/pages/category/Bakery/Yvonnes-Southern-Sweets-167149399971664/,San Francisco (Bayview),San Francisco,Dessert,,,,,,Y,,,Takeout,Y,,,,
Sistas Soul Food Kafe,"571 Bancroft Ave, San Leandro, CA 94577",37.733997,-122.151526,(510) 228-2250,http://sistassoulkafe.weebly.com/,https://www.yelp.com/biz/sistas-soul-food-kafe-san-leandro,,https://www.facebook.com/sistassoulfoodkafe/,San Leandro,East Bay,Southern,,,,,Y,,,,Takeout,Y,,,,
Radio Africa Kitchen,"4800 3rd St, San Francisco, CA 94124",37.734704,-122.390972,(415) 420-2486,www.radioafricakitchen.com,https://www.yelp.com/biz/radio-africa-kitchen-san-francisco,https://www.instagram.com/radioafricakitchen,https://www.facebook.com/pages/category/Ethiopian-Restaurant/Radio-Africa-Kitchen-214817898543835/,San Francisco (Bayview),San Francisco,Ethiopian,Y,,,,,,,,Takeout,Y,,,,
Auntie April’s,"4618 3rd St, San Francisco, CA 94124",37.736197,-122.39058,(415) 236-4158,,https://www.yelp.com/biz/auntie-aprils-chicken-n-waffles-san-francisco-2,https://www.instagram.com/auntieaprils,https://www.facebook.com/AuntieAprils/,San Francisco (Bayview),San Francisco,Southern,,,,Y,,,,,Temporarily Closed,,,,Y,
Nia Soul Foods,"4618 3rd St, San Francisco, CA 94124",37.736197,-122.39058,(415) 850-5408,https://niasoulfoods.com/,https://www.yelp.com/biz/nia-soul-food-san-francisco,https://www.instagram.com/niasoulfood,https://www.facebook.com/niasoulfood/,San Francisco,San Francisco,Southern,,,,Y,,,,,"Delivery, Catering",,Y,Y,,
Big H BBQ,"4101 3rd St, San Francisco, CA 94124",37.740074,-122.388535,,,,https://www.instagram.com/bigh_bbq_pop_up,,San Francisco (Bayview),San Francisco,Barbecue,,,,,Y,,,,Takeout,Y,,,,
Rome's Kitchen,"4101 3rd St, San Francisco, CA 94124",37.740074,-122.388535,(510) 467-457,,,https://www.instagram.com/romes_kitchen,,San Francisco (Bayview),San Francisco,Italian,,,,,,,,Y,"Takeout, Catering",Y,,Y,,
Camisha's Cakes,"255 Mendell St, San Francisco, CA 94124",37.741834,-122.383539,(415) 289-9898,www.camishascakes.com/,https://www.yelp.com/biz/camishas-cakes-san-francisco,https://www.instagram.com/camishascakes,https://www.facebook.com/camishascakes/,San Francisco,San Francisco,Dessert,,,,,,Y,,,Catering,,,Y,,
Dixon's,"8999 International Blvd, Oakland, CA 94621",37.749826,-122.174992,(510) 567-3222,www.yelp.com/biz/dixons-oakland-3,https://www.yelp.com/biz/dixons-oakland-3,https://www.instagram.com/dixonsrestaurant_,,Oakland,East Bay,Southern,,,,Y,,,,,"Takeout, Delivery",Y,Y,,,
Peaches Patties,"2948 Folsom St, San Francisco, CA 94110",37.75015,-122.414155,(415) 562-7589,https://peachespatties.com/,https://www.yelp.com/biz/peaches-patties-san-francisco-2,https://www.instagram.com/peachespatties,https://www.facebook.com/PeachesPatties/,San Francisco (Mission),San Francisco,Jamaican,,Y,,,,,,,"Takeout, Catering",Y,,Y,,
Teranga,"2948 Folsom St, San Francisco, CA 94110",37.75015,-122.414155,(415) 879-8372,www.terangajuice.com/,https://www.yelp.com/biz/teranga-baobab-san-francisco,https://www.instagram.com/terangalife,https://www.facebook.com/terangalife/,San Francisco (Mission),San Francisco,Senegalese,Y,,,,,,,,Delivery,,Y,,,
Anthony's Cookies,"1417 Valencia St, San Francisco, CA 94110",37.75018,-122.420289,(415) 655-9834,http://anthonyscookies.com/,https://www.yelp.com/biz/anthonys-cookies-san-francisco-2,https://www.instagram.com/anthonyscookies,https://www.facebook.com/Anthonys-Cookies-110621668978801/,San Francisco (Mission),San Francisco,Dessert,,,,,,Y,,,Takeout,Y,,,,
Roderick’s BBQ,"2708 98th Ave, Oakland, CA 94605",37.751561,-122.15367,(510) 564-4648,www.rodericksfoodtruck.com/,https://www.yelp.com/biz/rodericks-restaurant-and-mobile-catering-oakland,https://www.instagram.com/rodericksbbq,https://www.facebook.com/Rodericksbbq/,Oakland,East Bay,Barbecue,,,,,Y,,,,"Takeout, Catering",Y,,Y,,
Enat Winery,"910 81st Ave, Oakland, CA 94621",37.751966,-122.18735,(510) 632-6629,,https://www.yelp.com/biz/enat-winery-oakland,,,Oakland,East Bay,Wine,,,,,,,Y,,Pickup,,,,,
El Nuevo Frutilandia,"3077 24th St, San Francisco, CA 94110",37.752415,-122.41338,(415) 648-2958,https://www.frutilandiasf.com/,https://www.yelp.com/biz/el-nuevo-frutilandia-san-francisco,https://www.instagram.com/elnuevofrutilandia,https://www.facebook.com/ElNuevoFrutilandia/,San Francisco (Mission),San Francisco,"Cuban, Puerto Rican",,Y,,,,,,,"Takeout, Delivery",Y,Y,,,
MexiQ,"90th Ave, Oakland, CA 94603",37.755495,-122.161551,(510) 701-3239,www.mexiqnow.com/,https://www.yelp.com/biz/mexiq-oakland,https://www.instagram.com/eastoaklandsmoke,,Oakland,East Bay,Mexican,,,,,,,,Y,"Takeout, Delivery, Catering",Y,Y,Y,,
Gourmonade,"899 Valencia St, San Francisco, CA 94110",37.758751,-122.420978,(415) 967-2411,www.gourmonade.com/,https://www.yelp.com/biz/gourmonade-san-francisco,https://www.instagram.com/gourmonade,https://www.facebook.com/gourmonade/,San Francisco (Mission),San Francisco,American,,,Y,,,,,,Takeout,Y,,,,
Cafe Ethiopia,"878 Valencia St, San Francisco, CA 94110",37.758879,-122.421625,(415) 285-2728,,www.yelp.com/biz/cafe-ethiopia-san-francisco,,,San Francisco (Mission),San Francisco,Ethiopian,Y,,,,,,,,Takeout,Y,,,,
Ungrafted,"2419 3rd St, San Francisco, CA 94107",37.758987,-122.388185,(415) 814-2129,www.ungraftedsf.com,https://www.yelp.com/biz/ungrafted-san-francisco-2,https://www.instagram.com/ungrafted_sf,https://www.facebook.com/ungraftedsf/,San Francisco (Dogpatch),San Francisco,Bar,,,,,,,Y,,Takeout,Y,,,,
Little Baobab,"3386 19th St, San Francisco, CA 94110",37.760422,-122.418835,(415) 826-9287,www.bissapbaobab.com/,https://www.yelp.com/biz/little-baobab-san-francisco-5,https://www.instagram.com/bissapbaobab,https://www.facebook.com/BissapBaobabVillage/,San Francisco (Mission),San Francisco,Senegalese,Y,,,,,,,,"Takeout, Delivery",Y,Y,,,
Sunset Cantina,"3414 Judah St, San Francisco, CA 94122",37.760986,-122.498785,(415) 571-8874,https://sunsetcantinasf.com/,https://www.yelp.com/biz/sunset-cantina-san-francisco,https://www.instagram.com/sunsetcantinasf,https://www.facebook.com/sunsetcantinasf/,San Francisco (Outer Sunset),San Francisco,Mexican,,,,,,,,Y,Takeout,Y,,,,
New Eritrea Restaurant,"907 Irving St, San Francisco, CA 94122",37.763841,-122.46764,(415) 681-1288,http://neweritrearestaurant.com/index.html,https://www.yelp.com/biz/new-eritrea-restaurant-and-bar-san-francisco,,https://www.facebook.com/neweritrearestaurant/,San Francisco (Inner Sunset),San Francisco,Eritrean,Y,,,,,,,,"Takeout, Delivery",Y,Y,,,
Mission Bowling Club,"3176 17th St, San Francisco, CA 94110",37.763935,-122.416729,(415) 863-2695,https://missionbowlingclub.com/,https://www.yelp.com/biz/mission-bowling-club-san-francisco,https://www.instagram.com/missionbowlingclub,https://www.facebook.com/missionbowlingclub/,San Francisco (Mission),San Francisco,American,,,Y,,,,,,Takeout,Y,,,,
Soul Bowl'z,"2261 Market St, San Francisco, CA 94114",37.764776,-122.432049,(510) 821-3773,,https://www.yelp.com/biz/soul-bowlz-san-francisco,https://www.instagram.com/soul__bowlz,https://www.facebook.com/pages/category/Restaurant/Soul-Bowlz-126304611390053/,San Francisco (Bayview),San Francisco,Health Food,,,,,,,,Y,Uncertain,,,,,Y
Johnathan's Sandwich House,"2316 Santa Clara Ave, Alameda, CA 94501",37.76551,-122.24263,(510) 522-8040,https://johnathanssandwichalameda.com/,https://www.yelp.com/biz/johnathans-sandwich-house-alameda-2,https://www.instagram.com/johnathans_sandwich_house,https://www.facebook.com/pages/Johnathans-Sandwich-House/147436228618064,Alameda,East Bay,American,,,Y,,,,,,"Takeout, Delivery",Y,Y,,,
510 Cajun Catering,"International Blvd, Oakland, CA 94602",37.766468,-122.202393,(510) 393-5388,www.510cajuncatering.com,https://www.yelp.com/biz/510-cajun-catering-oakland-4,https://www.instagram.com/510cajuncatering,https://www.facebook.com/510Cajuncatering/,Oakland,East Bay,Cajun,,,,Y,,,,,Catering,,,Y,,
Chef Kenneth Wynn,"4441 Briarcliff Road Oakland, California 94605",37.766947,-122.140075,(510) 969-9665,www.wynncatering.com,,https://www.instagram.com/iplay4dawynn,https://www.facebook.com/foodiefridayliegeoak/,Oakland,East Bay,"Caribbean, Southern",,Y,,Y,,,,,"Catering, Pop Up",,,Y,,
Grandma's Hands,"7633 MacArthur Blvd, Oakland, CA 94605",37.767245,-122.169501,(510) 969-4017,,https://www.yelp.com/biz/grandma-s-hands-oakland,https://www.instagram.com/grandmashand.s,https://www.facebook.com/pages/category/Restaurant/Grandmas-Hands-111716370469413/,Oakland,East Bay,Southern,,,,Y,,,,,Takeout,Y,,,,
Fat Man Super BBQ,"6851 Foothill Ave, Oakland, CA 94605",37.769645,-122.177243,(415) 559-5721,,https://www.yelp.com/biz/oaklands-fat-man-super-bbq-oakland,https://www.instagram.com/oaklandsfatmansuperbbq,https://www.facebook.com/pages/category/Barbecue-Restaurant/Fat-Man-SuperBBQ-718792168196358/,Oakland,East Bay,Barbecue,,,,,Y,,,,Takeout,Y,,,,
DeVaughn's Cajun Kitchen,"6638 Bancroft Ave, Oakland, CA 94605",37.769825,-122.182272,(510) 969-5715,https://devaughnscajunkitchen.net/,https://www.yelp.com/biz/devaughns-cajun-kitchen-oakland,https://www.instagram.com/_just_tami_,https://www.facebook.com/devaughnscajunkitchen/,Oakland,East Bay,Cajun,,,,Y,,,,,"Takeout, Delivery",Y,Y,,,
Lena’s Soul Food Cafe,"6403 Foothill Blvd, Oakland, CA 94547",37.770487,-122.184521,(510) 957-5663,www.lenassoulfoodcafe.com/,https://www.yelp.com/biz/lenas-soul-food-restaurant-oakland-2,https://www.instagram.com/lenas.soul.food.cafe,https://www.facebook.com/LenasSoulFoodCafe/,Oakland,East Bay,Southern,,,,Y,,,,,"Takeout, Delivery",Y,Y,,,
Spritzer's Cafe,"734 Central Ave, Alameda, CA 94501",37.77135,-122.27506,(510) 995-8644,,https://www.yelp.com/biz/spritzers-alameda,,www.facebook.com/SpritzersCafe/,Alameda,East Bay,Coffee,,,,,,,Y,,Takeout,Y,,,,
Axum Cafe,"698 Haight St, San Francisco, CA 94117",37.77184,-122.433604,(415) 252-7912,www.axumcafesf.com/,https://www.yelp.com/biz/axum-cafe-san-francisco,,https://www.facebook.com/pages/Axum-Cafe/114078861941475,San Francisco (Lower Haight),San Francisco,Ethiopian,Y,,,,,,,,"Takeout, Delivery",Y,Y,,,
Two Jacks Seafood,"401 Haight St, San Francisco, CA 94117",37.772169,-122.42895,(415) 431-6290,www.twojacksniksplace.com/,https://www.yelp.com/biz/two-jacks-seafood-san-francisco-3,https://www.instagram.com/explore/locations/2865583/two-jacks-seafood,https://www.facebook.com/Two-Jacks-Seafood-136117401902/,San Francisco (Lower Haight),San Francisco,Southern,,,,Y,,,,,"Takeout, Delivery",Y,Y,,,
Cafe International,"508 Haight St, San Francisco, CA 94117",37.772277,-122.430781,(415) 552-7390,,https://www.yelp.com/biz/cafe-international-san-francisco,https://www.instagram.com/cafeintl,www.facebook.com/cafeinternational/,San Francisco (Lower Haight),San Francisco,Coffee,,,,,,,Y,,Takeout,Y,,,,
Sextant Coffee,"1415 Folsom St, San Francisco, CA 94103",37.772413,-122.412881,(415) 355-1415,https://sextantcoffee.com/,https://www.yelp.com/biz/sextant-coffee-roasters-san-francisco,https://www.instagram.com/sextantcoffee,https://www.facebook.com/sextantcoffeeroasters/,San Francisco (SOMA),San Francisco,Coffee,,,,,,,Y,,"Takeout, Delivery",Y,Y,,,
Ruth's Buka,"5250 Foothill Blvd, Oakland, CA 94601",37.772806,-122.201736,(510) 479-1238,www.ruthsbuka.com,https://www.yelp.com/biz/ruths-buka-oakland-2,https://www.instagram.com/ruthsbuka,https://www.facebook.com/ruthsbuka/,Oakland,East Bay,Nigerian,Y,,,,,,,,"Takeout, Delivery",Y,Y,,,
No Cookies,"5276 Foothill Blvd, Oakland, CA 94601",37.77281,-122.201218,(510) 261-5373,www.nocookie.com/,https://www.yelp.com/biz/no-cookie-oakland,https://www.instagram.com/the_no_cookie,https://www.facebook.com/thenocookie/,Oakland,East Bay,Dessert,,,,,,Y,,,Shipping,,,,,Y
Kefa Coffee,"422 29th Ave, Oakland, CA 94601",37.773164,-122.234841,(510) 261-3400,www.orderkefacoffee.com,https://www.yelp.com/biz/kefa-coffee-oakland,https://www.instagram.com/kefaoakland,https://www.facebook.com/CafeKefa/,Oakland,East Bay,Coffee,,,,,,,Y,,"Takeout, Delivery",Y,Y,,,
Eko Kitchen,"167 11th St, San Francisco, CA 94103",37.77357,-122.415886,(410) 344-3362,www.ekokitchensf.online/,https://www.yelp.com/biz/eko-kitchen-san-francisco,https://www.instagram.com/ekokitchensf,https://www.facebook.com/ekokitchensf/,San Francisco (SOMA),San Francisco,Nigerian,Y,,,,,,,,"Takeout, Delivery, Catering",Y,Y,Y,,
House of Tadu Ethiopian Kitchen,"1130 4th St, San Francisco, CA 94158",37.773702,-122.391681,(415) 655-9344,http://taduethiopiankitchen.com/,https://www.yelp.com/biz/tadu-ethiopian-kitchen-san-francisco-7,https://www.instagram.com/taduethiopian,https://www.facebook.com/houseoftadusf/,San Francisco (Tenderloin),San Francisco,Ethiopian,Y,,,,,,,,"Takeout, Delivery",Y,Y,,,
Tadu Ethiopian Kitchen,"1130 4th St, San Francisco, CA 94158",37.773702,-122.391681,(415) 409-6649,http://taduethiopiankitchen.com/,https://www.yelp.com/biz/tadu-ethiopian-kitchen-san-francisco-7,https://www.instagram.com/taduethiopian,https://www.facebook.com/houseoftadusf/,San Francisco (Mission Bay),San Francisco,Ethiopian,Y,,,,,,,,"Takeout, Delivery",Y,Y,,,
Club Waziema,"543 Divisadero St, San Francisco, CA 94117",37.774629,-122.437942,(415) 346-6641,,https://www.yelp.com/biz/club-waziema-san-francisco,,https://www.facebook.com/pages/category/Bar/Club-Waziema-644266702448968/,San Francisco (Nopa),San Francisco,Ethiopian,Y,,,,,,,,Takeout,Y,,,,Y
Burke and Black,"1145 Hayes St, San Francisco, CA 94117",37.774942,-122.435183,(415) 723-1955,https://burkeandblack.com/,https://www.yelp.com/biz/burke-and-black-san-francisco,https://www.instagram.com/burkeandblack,https://www.facebook.com/pg/burkeandblack/posts/,San Francisco,San Francisco,Californian,,,Y,,,,,,Delivery,,Y,,,
Sugarsweet,"5855 MacArthur Blvd, Oakland, CA 94605",37.775572,-122.1859,(510) 924-7076,www.sugarsweetoak.com,https://www.yelp.com/biz/sugarsweet-cookie-cake-studio-oakland,https://www.instagram.com/sugarsweetoak,https://www.facebook.com/sugarsweetCS/,Oakland,East Bay,Dessert,,,,,,Y,,,"Takeout, Delivery",Y,Y,,,
Hazel Southern Bar & Kitchen,"1446 Market St, San Francisco, CA 94102",37.776007,-122.418554,(415) 964-9644,www.hazelsf.com,https://www.yelp.com/biz/hazel-southern-bar-and-kitchen-san-francisco-4,https://www.instagram.com/hazelbarsf,https://www.facebook.com/hazelbarsf/,San Francisco (Civic Center),San Francisco,Southern,,,,Y,,,,,Takeout,Y,,,,
Moya,"121 9th St, San Francisco, CA 94103",37.776055,-122.414076,(415) 431-5544,,https://www.yelp.com/biz/moya-san-francisco,https://www.instagram.com/eatmoya,https://www.facebook.com/eatmoya/,San Francisco (SOMA),San Francisco,Ethiopian,Y,,,,,,,,Temporarily Closed,,,,Y,
Red Bay Coffee,"3098 E 10th St, Oakland, CA 94601",37.776337,-122.228341,(510) 399-2441,www.redbaycoffee.com/,https://www.yelp.com/biz/red-bay-coffee-public-roastery-oakland,https://www.instagram.com/redbaycoffee,https://business.facebook.com/redbaycoffee/,Oakland,East Bay,Coffee,,,,,,,Y,,"Takeout, Bean Delivery",Y,Y,,,Y
Tastebuds,"600 5th Ave, San Francisco, CA 94118",37.777151,-122.46277,(415) 668-9298,www.sftastebuds.com/,https://www.yelp.com/biz/tastebuds-san-francisco-2,https://www.instagram.com/tastebuds.sf,,San Francisco (Richmond),San Francisco,American,,,Y,,,,,,"Takeout, Delivery",Y,Y,,,
Oasis Cafe,"901 Divisadero St, San Francisco, CA 94115",37.77788,-122.438618,(415) 474-4900,www.oasiscafesf.com/,https://www.yelp.com/biz/oasis-cafe-san-francisco-3,,,San Francisco (Nopa),San Francisco,Ethiopian,Y,,,,,,,,Takeout,Y,,,,
Little Skillet,"360 Ritch St, San Francisco, CA 94107",37.778828,-122.394063,(415) 777-2777,www.littleskilletsf.com/,https://www.yelp.com/biz/little-skillet-san-francisco-2,https://www.instagram.com/littleskilletsf,https://www.facebook.com/littleskillet/,San Francisco (China Basin),San Francisco,Southern,,,,Y,,,,,"Takeout, Delivery",Y,Y,,,
Folklores Coffee Roasters,"1035 Fillmore St, San Francisco, CA 94115",37.778953,-122.432035,(415) 872-9880,,https://www.yelp.com/biz/folklores-coffee-traders-san-francisco,https://www.instagram.com/folklores_coffee_traders,https://www.facebook.com/folklorescoffee/,San Francisco (Fillmore),San Francisco,Coffee,,,,,,,Y,,Takeout,Y,,,,
Bella Trattoria,"3854 Geary Blvd, San Francisco, CA 94118",37.78139,-122.460927,(415) 221-305,https://osteriabella.com/,https://www.yelp.com/biz/bella-trattoria-san-francisco,https://www.instagram.com/bellatrattoria,https://www.facebook.com/bellatrattoria/,San Francisco (Richmond),San Francisco,Italian,,,,,,,,Y,"Takeout, Delivery",Y,Y,,,
Osteria Bella,"3848 Geary Blvd, San Francisco, CA 94118",37.78141,-122.460838,(415) 221-305,https://osteriabella.com/,https://www.yelp.com/biz/osteria-bella-san-francisco-2,https://www.instagram.com/osteriabella,https://www.facebook.com/osteriabella/,San Francisco (Richmond),San Francisco,Italian,,,,,,,,Y,"Takeout, Delivery",Y,Y,,,
Sheba Piano Lounge,"1419 Fillmore St, San Francisco, CA 94115",37.782818,-122.432803,(415) 440-7414,www.shebapianolounge.com/,https://www.yelp.com/biz/sheba-piano-lounge-san-francisco,https://www.instagram.com/sheba_piano_lounge,https://www.facebook.com/ShebaPianoLounge/,San Francisco (Fillmore),San Francisco,Ethiopian,Y,,,,,,,,Temporarily Closed,,,,Y,
Taqueria Los Mayas,"331 Clement St, San Francisco, CA 94118",37.78282,-122.462815,(415) 548-2800,www.taquerialosmayassf.com,https://www.yelp.com/biz/taqueria-los-mayas-san-francisco,https://www.instagram.com/yucataninsf,https://www.facebook.com/yucataninsf/,San Francisco (Richmond),San Francisco,Mexican,,,,,,,,Y,"Takeout, Delivery",Y,Y,,,
Miyako Old-Fashioned Ice Cream,"1470 Fillmore St, San Francisco, CA 94115",37.783038,-122.432472,(415) 931-5260,,https://www.yelp.com/biz/miyako-old-fashioned-ice-cream-san-francisco,https://www.instagram.com/explore/locations/2451918/,,San Francisco (Fillmore),San Francisco,Dessert,,,,,,Y,,,Takeout,Y,,,,
Man vs. Fries,"2307 International Blvd, Oakland, CA 94606",37.783101,-122.235825,(510) 479-3449,www.manvsfries.com,https://www.yelp.com/biz/man-vs-fries-oakland,https://www.instagram.com/manvsfries,https://www.facebook.com/manvsfries/,Oakland,East Bay,French Fries+,,,Y,,,,,,"Pop Up, Takeout, Delivery",Y,Y,,,Y
Z Zoul Cafe,"295 Eddy St, San Francisco, CA 94102",37.7838,-122.412339,(415) 757-187,https://zzoulcafe.com/,https://www.yelp.com/biz/z-zoul-cafe-san-francisco-4,https://www.instagram.com/zzoulcafesf,https://www.facebook.com/zzoulcafesf/,San Francisco (Tenderloin),San Francisco,Sudanese,Y,,,,,,,,"Takeout, Delivery",Y,Y,,,
Voodoo Love,"303 2nd St, San Francisco, CA 94107",37.785592,-122.395829,(415) 516-9243,www.voodoolovesf.com/,https://www.yelp.com/biz/voodoo-love-san-francisco,https://www.instagram.com/voodoolovesf,https://www.facebook.com/voodoolovesf,San Francisco (SOMA),San Francisco,Creole,,Y,,,,,,,"Takeout, Delivery",Y,Y,,,
Local Kitchen,"330 1st St #1, San Francisco, CA 94105",37.786783,-122.394216,(415) 777-4200,www.sf-local.com,https://www.yelp.com/biz/local-kitchen-and-wine-merchant-san-francisco-2,https://www.instagram.com/localkitchensf,https://www.facebook.com/localkitchenandwine/,San Francisco (Rincon Hill),San Francisco,"Singaporean, Pizza",,,,,,,,Y,"Takeout, Delivery",Y,Y,,,
Everett & Jones Barbeque,"4245 MacArthur Blvd, Oakland, CA 94619",37.787712,-122.195443,(510) 698-4340,https://eandjbbq.com/,https://www.yelp.com/biz/everett-and-jones-bbq-oakland,https://www.instagram.com/everettandjones,https://www.facebook.com/EandJMacArthur/,Oakland (Laurel),East Bay,Barbecue,,,,,Y,,,,"Takeout, Catering",Y,,Y,,
International Smoke,"301 Mission St, San Francisco, CA 94105",37.790619,-122.396182,(415) 722-2138,www.michaelmina.net/restaurants/international-smoke/san-francisco/,https://www.yelp.com/biz/international-smoke-san-francisco-san-francisco-2,https://www.instagram.com/internationalsmoke,,San Francisco (South Beach),San Francisco,Barbecue,,,,,Y,,,,"Takeout, Delivery",Y,Y,,,
Joshua's Gulfport Seafood,"2907 Fruitvale Ave, Oakland, CA 94602",37.793295,-122.219151,(510) 467-8390,,https://www.yelp.com/biz/joshuas-gulfport-seafood-oakland,,,Oakland,East Bay,Seafood,,,,,,,,Y,Takeout,Y,,,,
Flip N Soul,"2101 14th Ave, Oakland, CA 94606",37.794052,-122.240049,(510) 500-7586,,https://www.yelp.com/biz/flipnsoul-oakland,https://www.instagram.com/flipnsoul,,Oakland,East Bay,"Southern, Filipino",,,,Y,,,,Y,Takeout,Y,,,,
Chop Bar,"190 4th St, Oakland, CA 94607",37.795183,-122.269247,(510) 834-3467,www.oaklandchopbar.com,https://www.yelp.com/biz/chop-bar-oakland,https://www.instagram.com/oaklandchopbar,https://www.facebook.com/chopbar/,Oakland,East Bay,American,,,Y,,,,,,"Takeout, Delivery, Outdoor Dining",Y,Y,,,Y
Home of Chicken and Waffles,"444 Embarcadero West, Oakland, CA 94607",37.795319,-122.276033,(510) 836-4446,www.homeofchickenandwaffles.com,https://www.yelp.com/biz/home-of-chicken-and-waffles-oakland,https://www.instagram.com/the_homeofchickenandwaffles,https://www.facebook.com/thehomeofchickenandwaffles/,Oakland,East Bay,Southern,,,,Y,,,,,"Delivery, Catering",,Y,Y,,
Everett & Jones Barbeque,"126 Broadway, Oakland, CA 94607",37.795698,-122.276116,(510) 663-2350,https://eandjbbq.com/,https://www.yelp.com/biz/everett-and-jones-barbeque-oakland-4,https://www.instagram.com/everettandjones,https://www.facebook.com/EandJJL/,Oakland (Jack London),East Bay,Barbecue,,,,,Y,,,,"Takeout, Catering",Y,,Y,,
James and the Giant Cupcake,"465 2nd St, Oakland, CA 94607",37.796121,-122.276909,(510) 879-7255,www.jamesandthegiantcupcake.com/,https://www.yelp.com/biz/james-and-the-giant-cupcake-oakland-4,https://www.instagram.com/jamesandthegiantcupcake,https://www.facebook.com/jamesandthegiantcupcake/,Oakland (Jack London),East Bay,Dessert,,,,,,Y,,,"Takeout, Delivery",Y,Y,,,
Lane-e Kefa Coffee,"77 8th St Suite 182, Oakland, CA 94607",37.796514,-122.26508,(510) 628-814,,https://www.yelp.com/biz/lane-e-kefa-coffee-oakland,https://www.instagram.com/laneekefa,www.facebook.com/LaneeKefaCoffee/,Oakland,East Bay,Coffee,,,,,,,Y,,"Takeout, Delivery",Y,Y,,,
Souley Vegan,"301 Broadway, Oakland, CA 94607",37.797024,-122.276101,(510) 922-1615,https://souleyvegan.com/,https://www.yelp.com/biz/souley-vegan-oakland,https://www.instagram.com/souleyvegan,https://www.facebook.com/SouleyVegan/,Oakland,East Bay,Vegan,,,,,,,,Y,"Takeout, Delivery",Y,Y,,,
PieTisserie,"1605 2nd Ave, Oakland, CA 94606",37.799345,-122.254797,,www.pietisserie.com,https://www.yelp.com/biz/pietisserie-oakland-3,https://www.instagram.com/pietisserie,https://www.facebook.com/pietisserie,Berkeley,East Bay,Dessert,,,,,,Y,,,"Delivery, Catering",,Y,Y,,
Massawa Restaurant,"532 Green St, San Francisco, CA 94133",37.799771,-122.40798,(415) 621-4129,,https://www.yelp.com/biz/massawa-restaurant-san-francisco-2,,https://www.facebook.com/massawarestaurantsf,San Francisco (North Beach),San Francisco,Eritrean,Y,,,,,,,,"Takeout, Delivery",Y,Y,,,
The Veg Hub,"2214 MacArthur Blvd, Oakland, CA 94602",37.800382,-122.215726,(510) 454-8722,www.theveghub.com/,https://www.yelp.com/biz/the-veg-hub-oakland-3,https://www.instagram.com/theveghub,https://www.facebook.com/theveghub/,Oakland,East Bay,Vegan,,,,,,,,Y,"Takeout, Delivery",Y,Y,,,
Dimond Slice Pizzeria,"2208 MacArthur Blvd, Oakland, CA 94602",37.800398,-122.215802,(510) 842-8773,http://dimondpizza.com/,https://www.yelp.com/biz/dimond-slice-pizza-oakland,https://www.instagram.com/dimondslicepizza,https://www.facebook.com/dimondpizza/,Oakland,East Bay,Pizza,,,,,,,,Y,"Takeout, Delivery",Y,Y,,,
Graffiti Pizza,"719 Washington St, Oakland, CA 94607",37.800406,-122.275389,(510) 250-9303,,https://www.yelp.com/biz/graffiti-pizza-oakland,https://www.instagram.com/graffitipizza1,,Oakland,East Bay,Pizza,,,,,,,,Y,Takeout,Y,,,,
Fort Green,"736 Washington St, Oakland, CA 94607",37.800479,-122.274926,(510) 593-2172,www.fortgreenoakland.com/,https://www.yelp.com/biz/fort-green-oakland-2,https://www.instagram.com/fortgreenbar,https://www.facebook.com/fortgreenbar/,Oakland,East Bay,Bar,,,,,,,Y,,Temporarily Closed,,,,Y,
Oeste,"722 Clay St, Oakland, CA 94607",37.800765,-122.276122,(510) 817-4157,https://oesteoakland.com/,https://www.yelp.com/biz/oeste-bar-oakland-2,https://www.instagram.com/oeste.bar.cafe,https://www.facebook.com/oeste.bar.oakland/,Oakland,East Bay,California Soul,,,Y,,,,,,"Takeout, Delivery",Y,Y,,,
African Caribbean Food Market,"547 8th St, Oakland, CA 94607",37.800942,-122.276146,(510) 444-2841,www.manmustwak.net,https://www.yelp.com/biz/man-must-wak-oakland-3,https://www.instagram.com/manmustwak,,Oakland,East Bay,"African, Caribbean",Y,Y,,,,,,,"Takeout, Grocery",Y,,,,
Southern Cafe,"2000 MacArthur Blvd, Oakland, CA 94602",37.801119,-122.218414,(510) 336-2013,http://southerncafe2000.com/,https://www.yelp.com/biz/southern-cafe-oakland,https://www.instagram.com/socafe2000,https://www.facebook.com/SouthernCafe2000/,Oakland,East Bay,Southern,,,,Y,,,,,"Takeout, Delivery",Y,Y,,,
Da Flora,"701 Columbus Ave, San Francisco, CA 94133",37.801179,-122.411779,(415) 981-4664,http://daflora.com/,https://www.yelp.com/biz/da-flora-a-venetian-osteria-san-francisco,https://www.instagram.com/daflora_sf,https://www.facebook.com/daforasf/?rf=126293110759063,San Francisco (North Beach),San Francisco,Italian,,,,,,,,Y,"Takeout, Delivery",Y,Y,,,
Miss Ollie’s,"901 Washington St, Oakland, CA 94607",37.801616,-122.274672,(510) 285-6188,www.realmissolliesoakland.com/,https://www.yelp.com/biz/miss-ollies-oakland,https://www.instagram.com/missolliesoakland,https://www.facebook.com/MissOllies/,Oakland,East Bay,Caribbean,,Y,,,,,,,"Takeout, Delivery",Y,Y,,,
The Cook and Her Farmer,"510 9th St, Oakland, CA 94607",37.801668,-122.274934,(510) 285-6140,www.thecookandherfarmer.com/,https://www.yelp.com/biz/the-cook-and-her-farmer-oakland-2,https://www.instagram.com/thecookandherfarmer,https://www.facebook.com/thecookandherfarmer/,Oakland,East Bay,Californian,,,Y,,,,,,"Takeout, Delivery, Pantry",Y,Y,,,Y
Cupcakin' Bake Shop,"907 Washington St, Oakland, CA 94607",37.801707,-122.274629,(510) 817-4841,https://cupcakinbakeshop.com/,https://www.yelp.com/biz/cupcakin-bake-shop-oakland,https://www.instagram.com/cupcakinbakeshop,https://www.facebook.com/cupcakinbakeshop/,Oakland,East Bay,Dessert,,,,,,Y,,,"Takeout, Delivery",Y,Y,,,
Yammy's Caf&eacute & Deli,"542 9th St, Oakland, CA 94607",37.801854,-122.275468,(510) 250-9756,www.yammysethiopiancafe.com,https://www.yelp.com/biz/yammy-s-cafe-oakland,https://www.instagram.com/yamisdelicafe.1,https://www.facebook.com/pages/category/Ethiopian-Restaurant/Yammys-Cafe-and-Deli-107442641006168/,Oakland,East Bay,Ethiopian,Y,,,,,,,,"Takeout, Delivery",Y,Y,,,
LUX Pub and Club,"1100 Franklin St, Oakland, CA 94607",37.801858,-122.270979,(510) 922-1405,http://luxislife.com/,,https://www.instagram.com/luxislifeoakland,https://www.facebook.com/luxislifeoakland/,Oakland,East Bay,Bar,,,,,,,Y,,Takeout,Y,,,,
Slides & Sides Eatery,"1100 Franklin Street, Oakland, CA 94607",37.801858,-122.270979,(510) 922-1405,www.slidesnsides.com,https://www.yelp.com/biz/slides-sides-oakland,https://www.instagram.com/slidesandsides,https://www.facebook.com/pages/category/Restaurant/Slides-Sides-100771364935206/,Oakland,East Bay,American,,,Y,,,,,,"Takeout, Delivery",Y,Y,,,
Blue Nile,"160 14th St, Oakland, CA 94612",37.801887,-122.264278,(510) 250-9609,www.bluenilefood.com/,https://www.yelp.com/biz/blue-nile-ethiopian-oakland,https://www.instagram.com/bluenileoak,https://www.facebook.com/pages/category/Ethiopian-Restaurant/Blue-Nile-Ethiopian-Restaurant-Oakland-CA-1890392314600654/,Oakland,East Bay,Ethiopian,Y,,,,,,,,"Takeout, Delivery",Y,Y,,,
Super Juiced,"540 9th St, Oakland, CA 94607",37.801892,-122.275459,(510) 628-184,www.oaklandisjuiced.com/,https://www.yelp.com/biz/super-juiced-oakland,https://www.instagram.com/superjuicedoakland,https://www.facebook.com/superjuiced510/,Oakland,East Bay,Juice,,,,,,,Y,,Takeout,Y,,,,
Level 13,"341 13th St, Oakland, CA 94612",37.80243,-122.268961,(510) 839-1999,www.level13oakland.com,https://www.yelp.com/biz/level-13-oakland,https://www.instagram.com/level13oakland,https://www.facebook.com/level13lounge/,Oakland,East Bay,Caribbean,,Y,,,,,,,Delivery,,Y,,,
Tribune Tavern,"401 13th St, Oakland, CA 94612",37.803022,-122.270743,(510) 607-8187,www.tribunetavernoakland.com,https://www.yelp.com/biz/tribune-tavern-oakland,https://www.instagram.com/tribunetavernoakland,https://www.facebook.com/tribunetavernoakland/,Oakland,East Bay,American,,,Y,,,,,,"Takeout, Delivery, Outdoor Dining",Y,Y,,,Y
Halftime Sports Bar,"316 14th St, Oakland, CA 94612",37.803314,-122.267899,(510) 836-4400,http://halftimesportbar.letseat.at/,https://www.yelp.com/biz/halftime-sports-bar-oakland,https://www.instagram.com/halftimesportsbar,https://www.facebook.com/halftimesportsbar510/,Oakland,East Bay,Bar,,,,,,,Y,,Takeout,Y,,,,
Suya African Caribbean Grill,"1312 Broadway, Oakland, CA 94612",37.803883,-122.271251,(510) 465-7892,https://suyaafricangrill.getbento.com/,https://www.yelp.com/biz/suya-african-caribbean-grill-oakland-2,https://www.instagram.com/suyaafricangrill,https://www.facebook.com/suyabroadway/,Oakland (Broadway),East Bay,"West African, Caribbean",Y,Y,,,,,,,Temporarily Closed,,,,Y,
7th West,"1255 7th St, Oakland, CA 94607",37.804177,-122.290757,(415) 290-6501,www.7thwest.com,https://www.yelp.com/biz/7th-west-oakland,https://www.instagram.com/7thwestoakland,https://www.facebook.com/7thwestoakland/,Oakland,East Bay,Bar,,,,,,,Y,,Temporarily Closed,,,,Y,
Trap Kitchen,"420 14th St, Oakland, CA 94612",37.804185,-122.270454,(510) 610-4454,https://complexoakland.com/,https://www.yelp.com/biz/trap-kitchen-oakland-oakland,https://www.instagram.com/trapkitchenoakland,https://www.facebook.com/pages/Trap-Kitchen-Oakland/444128972984770,Oakland,East Bay,"Southern, Californian",,,Y,Y,,,,,"Takeout, Delivery",Y,Y,,,
Jusla Eats,"1409 Franklin St, Oakland, CA 94612",37.804198,-122.269989,(510) 705-3721,www.cheflalaharrison.com/,https://www.yelp.com/biz/jusla-oakland-2,https://www.instagram.com/lala_icook4dapeople,https://www.facebook.com/pages/category/Product-Service/Jusla-Eats-107791610684201/,Oakland,East Bay,Global,,,,,,,,Y,"Takeout, Delivery, Catering",Y,Y,Y,,
Zella's Soulful Kitchen,"499 14th St, Oakland, CA 94612",37.804378,-122.272981,(510) 604-5887,www.zellassoulfulkitchen.com/,https://www.yelp.com/biz/zellas-soulful-kitchen-oakland-2,https://www.instagram.com/zellaskitchen,https://www.facebook.com/Zellassoulfulkitchen/,Oakland,East Bay,Southern,,,,Y,,,,,Temporarily Closed,,,,Y,
The Hatch,"402 15th St, Oakland, CA 94612",37.805108,-122.269523,(650) 488-1962,www.thehatchoak.com/,https://www.yelp.com/biz/the-hatch-oakland-oakland,https://www.instagram.com/thehatchoak,https://www.facebook.com/thehatcho/,Oakland,East Bay,American,,,Y,,,,,,Temporarily Closed,,,,Y,
Happy Burrito,"1616 Webster St, Oakland, CA 94612",37.805275,-122.267443,(510) 763-9174,,https://www.yelp.com/biz/happy-burrito-oakland,,https://www.facebook.com/HappyBurrito,Oakland,East Bay,Mexican,,,,,,,,Y,"Takeout, Delivery",Y,Y,,,
James and the Giant Cupcake **,"341 17th St, Oakland, CA 94612",37.805535,-122.2672,(510) 879-7255,www.jamesandthegiantcupcake.com/,https://www.yelp.com/biz/james-and-the-giant-cupcake-oakland-2,https://www.instagram.com/jamesandthegiantcupcake,https://www.facebook.com/jamesandthegiantcupcake/,Oakland (Uptown),East Bay,Dessert,,,,,,Y,,,"Takeout, Delivery",Y,Y,,,
Sobre Mesa,"1618 Franklin St, Oakland, CA 94612",37.805658,-122.26839,(510) 858-7544,www.sobremesaoak.com/,https://www.yelp.com/biz/sobre-mesa-oakland-4,https://www.instagram.com/sobremesaoak,https://www.facebook.com/sobremesaoak/,Oakland,East Bay,Afro-Latino,Y,,,,,,,Y,"Takeout, Delivery",Y,Y,,,
Rush Bowls,"350 17th St, Oakland, CA 94612",37.805876,-122.26746,(510) 590-9068,www.rushbowls.com/oakland,https://www.yelp.com/biz/rush-bowls-oakland-3,https://www.instagram.com/rushbowlsoakland,https://www.facebook.com/RushBowlsOakland17thSt/,Oakland,East Bay,Health Food,,,,,,,,Y,"Takeout, Delivery",Y,Y,,,
Uncle Willie's Original BBQ and Fish," 614 14th St, Oakland, CA 94612",37.805996,-122.275067,(510) 465-9200,unclewilliesbbq.com,https://www.yelp.com/biz/uncle-willies-bbq-and-fish-oakland,https://www.instagram.com/explore/locations/3625952/united-states/oakland-california/uncle-willies-original-bbq-and-fish/,https://www.facebook.com/UncleWillies/,Oakland,East Bay,"Barbecue, Southern",,,,Y,Y,,,,"Takeout, Delivery",Y,Y,,,
Queen’s Louisiana Po-Boy Cafe,"Pier 33 North The Embarcadero, San Francisco, CA 94133",37.806907,-122.404449,(415) 397-1507,https://queenslapoboyscafe.com/,https://www.yelp.com/biz/queens-louisiana-po-boy-cafe-san-francisco,https://www.instagram.com/queens_louisiana__poboy_cafe,https://www.facebook.com/QueensLAPoBoys/,San Francisco (Embarcadero),San Francisco,Creole,,Y,,,,,,,Takeout,Y,,,,
Catered to You,"1711 Telegraph Ave, Oakland, CA 94612",37.807082,-122.270481,(510) 208-2522,https://cateredtoyou.business.site,https://www.yelp.com/biz/catered-to-you-oakland,https://www.instagram.com/cateredtoyou,https://www.facebook.com/pages/category/Caterer/Catered-To-You-170188416370279/,Oakland,East Bay,American,,,Y,,,,,,"Takeout, Delivery",Y,Y,,,
Drexl,"382 19th St, Oakland, CA 94612",37.807249,-122.267361,(510) 858-5398,www.drexl.bar/,https://www.yelp.com/biz/drexl-bar-oakland,https://www.instagram.com/drexlbar,https://www.facebook.com/drexlbar/,Oakland,East Bay,Bar,,,,,,,Y,,Temporarily Closed,,,,Y,
Marzano,"4214 Park Blvd, Oakland, CA 94602",37.807249,-122.22208,(510) 479-1448,www.marzanorestaurant.com,https://www.yelp.com/biz/marzano-oakland-4,https://www.instagram.com/marzanorestaurant,https://www.facebook.com/marzanorestaurant/,Oakland,East Bay,Italian,,,,,,,,Y,"Takeout, Delivery",Y,Y,,,
The Miranda,"1739 Broadway, Oakland, CA 94612",37.807347,-122.269558,(510) 740-5760,www.themirandaoakland.com/,https://www.yelp.com/biz/the-miranda-oakland,https://www.instagram.com/themirandabar,https://www.facebook.com/themirandabar/,Oakland,East Bay,Bar,,,,,,,Y,,Temporarily Closed,,,,Y,
Brundo Spices,"1960 Mandela Pkwy Bay 6, Oakland, CA 94607",37.807558,-122.293053,(510) 289-4050,www.brundo.com,https://www.yelp.com/biz/brundo-ethiopian-spice-company-oakland,https://www.instagram.com/brundospices,https://www.facebook.com/brundoethiopianspices/,Oakland,East Bay,"Ethiopian, Spices",Y,,,,,,,Y,Online Ordering,,,,,Y
Robert Dorsey Catering,"344 20th St, Oakland, CA 94612",37.808503,-122.265356,(510) 277-3306,https://chefrobertdorsey.com/,https://www.yelp.com/biz/robert-dorsey-catering-and-events-oakland,https://www.instagram.com/robertdorseycatering,https://www.facebook.com/robertdorseycatering/,Oakland,East Bay,Global,,,,,,,,Y,Takeout,Y,,,,
Enssaro Ethiopian,"357-A Grand Ave, Oakland, CA 94610",37.808696,-122.255638,(510) 238-9050,www.enssaro.com/,https://www.yelp.com/biz/enssaro-ethiopian-restaurant-oakland-3,https://www.instagram.com/enssarooakland,https://www.facebook.com/Enssaro/,Oakland,East Bay,Ethiopian,Y,,,,,,,,Temporarily Closed,,,,Y,
Little Giant Ice Cream,"1951 Telegraph Ave, Oakland, CA 94612",37.809162,-122.270019,(510) 922-1426,www.littlegianticecream.com/,https://www.yelp.com/biz/little-giant-ice-cream-oakland,https://www.instagram.com/littlegiant_ic,https://www.facebook.com/Little-Giant-Ice-Cream-436837296466443/,Oakland,East Bay,Dessert,,,,,,Y,,,"Takeout, Delivery",Y,Y,,,
Grandeur,"366B Grand Ave, Oakland, CA 94610",37.809209,-122.255221,(510) 879-7568,www.grandeuroakland.com/,https://www.yelp.com/biz/grandeur-oakland-oakland,https://www.instagram.com/grandeurongrand,https://www.facebook.com/grandeurongrand/,Oakland,East Bay,Vegan,,,,,,,,Y,"Takeout, Delivery",Y,Y,,,
Ca&ntildea Cuban Parlor & Cafe,"530 Lake Park Ave, Oakland, CA 94610",37.810422,-122.246575,(510) 832-1515,www.canaoakland.com,https://www.yelp.com/biz/cana-cuban-parlor-and-cafe-oakland,https://www.instagram.com/canaoakland,https://www.facebook.com/CANACUBANPARLORANDCAFE/,Oakland,East Bay,Cuban,,Y,,,,,,,"Takeout, Delivery",Y,Y,,,
Vegan Mob,"500 Lake Park Ave, Oakland, CA 94610",37.810646,-122.24692,(415) 513-5120,http://veganmob.biz/,https://www.yelp.com/biz/vegan-mob-oakland-4,https://www.instagram.com/Officialveganmob,https://www.facebook.com/officialveganmob/,Oakland,East Bay,Vegan,,,,,,,,Y,"Takeout, Delivery",Y,Y,,,
Suya African Caribbean Grill,"408 22nd St, Oakland, CA 94612",37.810951,-122.266452,(510) 835-7892,https://suyaafricangrill.getbento.com/,https://www.yelp.com/biz/suya-african-caribbean-grill-oakland,https://www.instagram.com/suyaafricangrill,https://www.facebook.com/suyaoakland/,Oakland (22nd st),East Bay,"West African, Caribbean",Y,Y,,,,,,,"Takeout, Delivery",Y,Y,,,
Mela Bistro,"35 Grand Ave, Oakland, CA 94612",37.811297,-122.266041,(510) 844-4886,www.melabistro.com/,https://www.yelp.com/biz/mela-bistro-oakland,https://www.instagram.com/melabistrooakland,https://www.facebook.com/Mela-Bistro-Modern-Ethiopian-Cuisine-107966960622731/,Oakland,East Bay,Ethiopian,Y,,,,,,,,"Takeout, Delivery",Y,Y,,,
Alamar Kitchen,"100 Grand Ave #111, Oakland, CA 94612",37.811553,-122.264894,(510) 907-7555,www.alamaroakland.com,https://www.yelp.com/biz/alamar-kitchen-and-bar-oakland-3,https://www.instagram.com/alamaroakland,https://www.facebook.com/alamaroakland/,Oakland,East Bay,Global,,,,,,,,Y,"Takeout, Delivery",Y,Y,,,
Gregory's Gourmet Desserts,"285 23rd St, Oakland, CA 94612",37.811655,-122.26402,(510) 272-9722,www.gregorysgourmetdesserts.com/,https://www.yelp.com/biz/gregorys-gourmet-desserts-oakland,https://www.instagram.com/gregorysgourmetdesserts,https://www.facebook.com/GregorysGourmetDesserts/,Oakland,East Bay,Dessert,,,,,,Y,,,Takeout,Y,,,,
Monaghan's On the Hill,"2820 Mountain Blvd, Oakland, CA 94602",37.811814,-122.198168,(510) 482-2500,www.monaghansoakland.com,https://www.yelp.com/biz/monaghans-on-the-hill-oakland-3,https://www.instagram.com/monaghanshill,https://www.facebook.com/pages/category/American-Restaurant/Monaghans-on-the-Hill-263486457073356/,Oakland,East Bay,Californian,,,Y,,,,,,Takeout,Y,,,,
Cafe Romanat,"462 Santa Clara Ave, Oakland, CA 94610",37.812021,-122.248287,(510) 444-1800,www.caferomanat.com,https://www.yelp.com/biz/cafe-romanat-oakland,https://www.instagram.com/caferomanat,https://www.facebook.com/pages/category/Ethiopian-Restaurant/Cafe-Romanat-Ethiopian-Restaurant-244273885669115/,Oakland,East Bay,Ethiopian,Y,,,,,,,,Takeout,Y,,,,
Brown Sugar Kitchen,"2295 Broadway, Oakland, CA 94612",37.812089,-122.266684,(510) 839-7685,www.brownsugarkitchen.com/,https://www.yelp.com/biz/brown-sugar-kitchen-oakland-3,https://www.instagram.com/brownsugarkitchen,https://www.facebook.com/brownsugarkitchen/,Oakland,East Bay,Southern,,,,Y,,,,,"Takeout, Delivery",Y,Y,,,
Kingston 11 Cuisine,"2270 Telegraph Ave, Oakland, CA 94612",37.812284,-122.268599,(510) 465-2558,http://kingston11eats.com/dinner/,https://www.yelp.com/biz/kingston-11-cuisine-oakland,https://www.instagram.com/_kingston11,https://www.facebook.com/kingston11cuisine/,Oakland,East Bay,Jamaican,,Y,,,,,,,"Takeout, Delivery",Y,Y,,,
Calavera,"2337 Broadway, Oakland, CA 94612",37.812829,-122.266187,(510) 338-3273,www.calaveraoakland.com,https://www.yelp.com/biz/calavera-oakland,https://www.instagram.com/calaveraoakland,,Oakland,East Bay,Mexican,,,,,,,,Y,"Takeout, Delivery",Y,Y,,,
Malibu's Burgers,"3332 Grand Ave, Oakland, CA 94610",37.813237,-122.246613,(510) 387-1018,www.malibusburgers.com,https://www.yelp.com/biz/malibu-s-burgers-oakland,https://www.instagram.com/malibusburgers,https://www.facebook.com/malibusburgers/,Oakland,East Bay,Vegan,,,,,,,,Y,Takeout,Y,,,,
The Lumpia Company,"372 24th St, Oakland, CA 94612",37.813405,-122.264579,(510) 835-5885,www.thelumpiacompany.com,https://www.yelp.com/biz/the-lumpia-company-oakland,https://www.instagram.com/thelumpiacompany,https://www.facebook.com/thelumpiacompany/,Oakland,East Bay,Filipino,,,,,,,,Y,"Takeout, Delivery",Y,Y,,,
Two Chicks in the Mix,"372 24th St, Oakland, CA 94612",37.813405,-122.264579,(510) 213-8542,www.twochicksinthemix.com/,https://www.yelp.com/biz/two-chicks-in-the-mix-oakland,https://www.instagram.com/twochicksinthemix,https://www.facebook.com/twochicksinthemix/,Oakland,East Bay,Dessert,,,,,,Y,,,"Delivery, Catering",,Y,Y,,
Chef Smelly's,"2430 Broadway, Oakland, CA 94612",37.814009,-122.264897,(510) 812-2675,http://smellyscreolecateringllc.com/,https://www.yelp.com/biz/chef-smellys-oakland-3,https://www.instagram.com/chefsmelly,https://www.facebook.com/Chefsmelly/,Oakland,East Bay,Southern,,,,Y,,,,,Takeout,Y,,,,
Cafe Dareye,"2504 Telegraph Ave, Oakland, CA 94612",37.81476,-122.268085,(510) 817-4548,,https://www.yelp.com/biz/cafe-dareye-oakland-2,https://www.instagram.com/explore/tags/cafedareye/,https://www.facebook.com/cafedareye/,Oakland,East Bay,Ethiopian,Y,,,,,,,,Temporarily Closed,,,,Y,
Stay Gold Deli,"2635 San Pablo Ave, Oakland, CA 94612",37.817694,-122.275933,(510) 350-8729,www.staygolddeli.com,https://www.yelp.com/biz/stay-gold-deli-oakland,https://www.instagram.com/staygoldoakland,https://www.facebook.com/staygolddeli/,Oakland,East Bay,Italian,,,,,,,,Y,Temporarily Closed,,,,Y,
Horn BBQ,"2534 Mandela Pkwy, Oakland, CA 94607",37.820308,-122.288792,(408) 648-3512,www.hornbarbecue.com,https://www.yelp.com/biz/horn-barbecue-oakland,https://www.instagram.com/hornbarbecue,https://www.facebook.com/Hornbarbecue/,Oakland,East Bay,Barbecue,,,,,Y,,,,Catering,,,Y,,
Carolyn's Creole Kitchen,"2921 Chestnut St, Oakland, CA 94608",37.821294,-122.281056,(510) 725-2070,www.gocreole.co/,https://www.yelp.com/biz/carolyns-creole-kitchen-emeryville,https://www.instagram.com/carolyncreolekitchen,https://www.facebook.com/pages/category/Cajun---Creole-Restaurant/Carolyns-Creole-Kitchen-2088136501228800/,Oakland,East Bay,Creole,,,,Y,,,,,Catering,,,Y,,
Red Door Catering,"2925 Adeline St, Oakland, CA 94608",37.821652,-122.282021,(510) 339-2320,https://reddoorcatering.com/,https://www.yelp.com/biz/the-red-door-catering-oakland,https://www.instagram.com/thereddoorcatering510,https://www.facebook.com/ReddoorCatering/,Oakland,East Bay,Global,,Y,,,,,,,Catering,,,Y,,
Elve's BBQ and Soul Food,"3214 Martin Luther King Jr Way, Oakland, CA 94609",37.821785,-122.270113,(510) 655-9500,,https://www.yelp.com/biz/elves-bbq-and-soul-food-oakland,https://www.instagram.com/mobbkitchen,,Oakland,East Bay,"Barbecue, Southern",,,,Y,Y,,,,Takeout,Y,,,,
Magnolia Street Wine Lounge + Kitchen,"3443 San Pablo Ave, Oakland, CA 94608",37.825816,-122.278385,(510) 205-8540,www.chefleilani.com,,https://www.instagram.com/magnoliastwinelounge,https://www.facebook.com/magnoliastwinelounge/,Oakland,East Bay,"Southern, Californian",,,Y,Y,,,,,Takeout,Y,,,,
Hella Nuts,"3645 Martin Luther King Jr Way, Oakland, CA 94609",37.826123,-122.269659,(510) 463-1690,www.thatshellanuts.com,https://www.yelp.com/biz/hella-nuts-oakland-2,https://www.instagram.com/hella_nuts,https://www.facebook.com/HellaNutsEatery/,Oakland,East Bay,Vegan,,,,,,,,Y,Delivery,,Y,,,
Rob Ben's,"3627 San Pablo Ave, Emeryville, CA 94608",37.827616,-122.279027,(510) 250-9636,,https://www.yelp.com/biz/rob-ben-s-restaurant-and-lounge-emeryville,https://www.instagram.com/robbens_restaurant,,Emeryville,East Bay,American,,,Y,,,,,,Takeout,Y,,,,
Teni East Kitchen,"4015 Broadway, Oakland, CA 94611",37.827912,-122.256714,(510) 597-1860,www.tenieastkitchen.com,https://www.yelp.com/biz/teni-east-kitchen-oakland,https://www.instagram.com/tenieastkitchen,https://www.facebook.com/tenieastkitchen/,Oakland,East Bay,Burmese,,,,,,,,Y,"Takeout, Delivery",Y,Y,,,
Minto Jamaican Market,"4042 Broadway, Oakland, CA 94611",37.828265,-122.255985,(510) 652-2168,www.mintojamaicanmarket.com,https://www.yelp.com/biz/minto-jamaican-market-oakland,https://www.instagram.com/mintojamaicanmarket510,https://www.facebook.com/MintoMarket/?rf=458637607600727,Oakland,East Bay,"Jamaican, West Indian",,Y,,,,,,,"Takeout, Grocery",Y,,,,Y
MLK Cafe,"3860 Martin Luther King Jr Way, Oakland, CA 94609",37.828519,-122.268397,(510) 450-600,,https://www.yelp.com/biz/mlk-caf%C3%A9-oakland-3,https://www.instagram.com/explore/locations/242632057/mlk-cafe-and-restaurant,https://www.facebook.com/mlkcafe/,Oakland,East Bay,"Ethiopian, Eritrean",Y,,,,,,,,Takeout,Y,,,,
Burlap Coffee,"511 40th St, Oakland, CA 94609",37.829103,-122.265555,(510) 250-9238,,https://www.yelp.com/biz/burlap-coffee-oakland,https://www.instagram.com/burlapoakland,https://www.facebook.com/pages/category/Coffee-Shop/Burlap-Coffee-344164743009784/,Oakland,East Bay,Coffee,,,,,,,Y,,Takeout,Y,,,,
Messob Ethiopian Restaurant,"4301 Piedmont Ave B, Oakland, CA 94611",37.829236,-122.248983,(510) 428-1122,http://ordermessobethiopianrestaurant.com/,https://www.yelp.com/biz/messob-ethiopian-restaurant-oakland,https://www.instagram.com/mesobethiopiann,https://www.facebook.com/messobethiopianrestaurant/,Oakland,East Bay,Ethiopian,Y,,,,,,,,"Takeout, Delivery",Y,Y,,,
Cafe Dejena,"3939 Martin Luther King Jr Way, Oakland, CA 94609",37.829599,-122.268708,(510) 655-9328,www.cafedejena.com/,https://www.yelp.com/biz/cafe-dejena-oakland,https://www.instagram.com/cafe_dejena,https://www.facebook.com/CafeDejena/,Oakland,East Bay,Eritrean,Y,,,,,,,,"Takeout, Delivery",Y,Y,,,
Cafe Eritrea D'Afrique,"4069 Telegraph Ave, Oakland, CA 94609",37.829844,-122.264593,(510) 547-4520,http://cafeeritreadafrique.com/,https://www.yelp.com/biz/cafe-eritrea-d-afrique-oakland-4,https://www.instagram.com/cafe_eritrea_d_afrique,,Oakland,East Bay,Eritrean,Y,,,,,,,,Temporarily Closed,,,,Y,
Hip Hop Juice Box,"3960 Adeline St, Emeryville, CA 94608",37.83055,-122.278221,(510) 788-4252,,https://www.yelp.com/biz/hip-hop-juice-box-emeryville,https://www.instagram.com/hiphopjuicebox,https://www.facebook.com/HipHopJuiceBox/,Emeryville,East Bay,Juice,,,,,,,Y,,"Takeout, Delivery",Y,Y,,,
2nd Half Bar & Lounge,"4307 Telegraph Ave, Oakland, CA 94609",37.831826,-122.264143,(510) 250-9675,,https://www.yelp.com/biz/2nd-half-bar-and-lounge-oakland,https://www.instagram.com/2ndhalfsportslounge,,Oakland,East Bay,Bar,,,,,,,Y,,Takeout,Y,,,,
Smokin Woods BBQ,"4307 Telegraph Ave, Oakland, CA 94609",37.831826,-122.264143,(510) 423-8634,www.smokinwoodsbbq.com,https://www.yelp.com/biz/smokin-woods-bbq-oakland-9,https://www.instagram.com/smokinwoodsbbq,https://www.facebook.com/smokinwoodsbbq/,Oakland,East Bay,Barbecue,,,,,Y,,,,"Takeout, Delivery",Y,Y,,,
Touch of Soul,"4336 San Pablo Ave, Emeryville, CA 94608",37.834291,-122.280678,(510) 595-1227,https://touch-of-soul.business.site/,https://www.yelp.com/biz/touch-of-soul-emeryville,,https://www.facebook.com/TouchOfSoul/,Emeryville,East Bay,Southern,,,,Y,,,,,Takeout,Y,,,,
Abesha Ethiopian Cuisine,"4929 Shattuck Ave, Oakland, CA 94609",37.836638,-122.26422,(510) 653-8383,,https://www.yelp.com/biz/abesha-ethiopian-cuisine-oakland,https://www.instagram.com/abeshaethiopiancuisine,https://www.facebook.com/abeshaoakland/,Oakland,East Bay,Ethiopian,Y,,,,,,,,"Takeout, Delivery",Y,Y,,,
Asmara,"5020 Telegraph Ave, Oakland, CA 94609",37.836771,-122.262137,(510) 547-5100,http://asmararestaurant.com/,https://www.yelp.com/biz/asmara-restaurant-oakland,https://www.instagram.com/asmararestaurant,https://www.facebook.com/pages/category/Ethiopian-Restaurant/Asmara-Restaurant-258888564137683/,Oakland,East Bay,"Ethiopian, Eritrean",Y,,,,,,,,Takeout,Y,,,,
Roba's Pizza,"2320 Powell St, Emeryville, CA 94608",37.837342,-122.302032,(510) 547-7773,http://www.robaspizza.com/,https://www.yelp.com/biz/robas-pizza-cafe-emeryville,,https://www.facebook.com/pages/category/Pizza-Place/Robas-Pizza-116565618529704/,Emeryville,East Bay,Pizza,,,,,,,,Y,Takeout,Y,,,,
Red Sea,"5200 Claremont Ave, Oakland, CA 94618",37.838295,-122.261262,(510) 655-3757,redseaoakland.com,https://www.yelp.com/biz/red-sea-restaurant-oakland,,https://www.facebook.com/pages/category/Local-Business/RED-SEA-294943453868176/,Oakland,East Bay,"Ethiopian, Eritrean",Y,,,,,,,,"Takeout, Delivery",Y,Y,,,
Oakland's Very Own Tavern,"5319 Martin Luther King Jr Way, Oakland, CA 94609",37.838354,-122.269663,(510) 922-8082,https://ovotavern.com/,https://www.yelp.com/biz/ovo-tavern-and-eatery-oakland,https://www.instagram.com/ovo_5319,https://www.facebook.com/Ovo-Tavern-Eatery-1436249300015989/,Oakland,East Bay,Bar,,,,,,,Y,,"Takeout, Delivery",Y,Y,,,
Alem's Coffee,"5353 Claremont Ave, Oakland, CA 94618",37.840328,-122.259833,(510) 655-6003,https://alemscoffee.wixsite.com/site,https://www.yelp.com/biz/alems-coffee-oakland,,https://www.facebook.com/pages/category/Coffee-Shop/Alems-Coffee-137758752932576/,Oakland,East Bay,Coffee,,,,,,,Y,,"Takeout, Delivery",Y,Y,,,
Minnie Bell's Soul Movement,"5959 Shellmound St, Emeryville, CA 94608",37.841114,-122.293597,(510) 879-7199,www.minniebellssoul.com/,https://www.yelp.com/biz/minnie-bells-soul-movement-emeryville-3,https://www.instagram.com/minnie_bells,https://www.facebook.com/minniebells/,Emeryville,East Bay,Southern,,,,Y,,,,,"Takeout, Delivery",Y,Y,,,
It's All Good Bakery,"5622 Martin Luther King Jr Way, Oakland, CA 94609",37.841122,-122.269626,(510) 597-9700,www.itsallgoodbakery.com/home.php,https://www.yelp.com/biz/its-all-good-bakery-oakland,https://www.instagram.com/itsallgoodbakery,https://www.facebook.com/Its-All-Good-Bakery-Inc-105316053172/,Oakland,East Bay,Dessert,,,,,,Y,,,"Takeout, Catering",Y,,Y,,
Crumble & Whisk Patisserie,"6270 Overland Ave, Emeryville, CA 94608",37.843189,-122.292731,(415) 237-3318,https://crumbleandwhisk.com/,https://www.yelp.com/biz/crumble-and-whisk-emeryville-2,https://www.instagram.com/crumbleandwhisk,https://www.facebook.com/crumbleandwhisk/,Emeryville,East Bay,Dessert,,,,,,Y,,,"Takeout, Delivery, Catering",Y,Y,Y,,
Lois the Pie Queen,"851 60th St, Oakland, CA 94608",37.844775,-122.272941,(510) 658-5616,http://loisthepiequeen.food73.com/,https://www.yelp.com/biz/lois-the-pie-queen-oakland,https://www.instagram.com/lois_the_pie_queen,https://www.facebook.com/pages/category/Diner/Lois-The-Pie-Queen-118166941529472/,Oakland,East Bay,Dessert,,,,,,Y,,,Takeout,Y,,,,
James and the Giant Cupcake,"6326 San Pablo Ave, Oakland, CA 94608",37.846644,-122.284478,(510) 879-7255,www.jamesandthegiantcupcake.com/,https://www.yelp.com/biz/james-and-the-giant-cupcake-oakland,https://www.instagram.com/jamesandthegiantcupcake,https://www.facebook.com/jamesandthegiantcupcake/,Oakland (San Pablo),East Bay,Dessert,,,,,,Y,,,"Takeout, Delivery",Y,Y,,,
Shewhat,"6101 Shattuck Ave, Oakland, CA 94609",37.846687,-122.265658,(510) 250-9533,,https://www.yelp.com/biz/shewhat-oakland,,https://www.facebook.com/shewhatCafe,Oakland,East Bay,Eritrean,Y,,,,,,,,Temporarily Closed,,,,Y,
Alchemy Coffee Collective,"1741 Alcatraz Ave, Berkeley, CA 94703",37.848794,-122.272498,(510) 394-4758,www.alchemycollectivecafe.com/,https://www.yelp.com/biz/alchemy-collective-cafe-berkeley-4,https://www.instagram.com/alchemycollective,https://www.facebook.com/Alchemycollective/,Berkeley,East Bay,Coffee,,,,,,,Y,,Takeout,Y,,,,
Lemat,"3212 Adeline St, Berkeley, CA 94703",37.850275,-122.271344,(510) 430-2717,www.lemateats.com/,https://www.yelp.com/biz/lemat-berkeley,https://www.instagram.com/lemat_ethiopian_restaurant,https://www.facebook.com/lematethiorestaurant/,Berkeley,East Bay,Ethiopian,Y,,,,,,,,"Takeout, Delivery",Y,Y,,,
Cafe Colucci,"6427 Telegraph Ave, Oakland, CA 94609",37.850807,-122.260703,(510) 473-5944,www.cafecolucci.com/,https://www.yelp.com/biz/cafe-colucci-oakland,https://www.instagram.com/cafecolucci,https://www.facebook.com/cafecolucc/,Oakland,East Bay,Ethiopian,Y,,,,,,,,"Takeout, Delivery",Y,Y,,,
Barcote Ethiopian Restaurant,"6430 Telegraph Ave, Berkeley, CA 94705",37.850863,-122.260101,(510) 923-6181,http://orderbarcoteethiopianrestaurant.com/,https://www.yelp.com/biz/barcote-ethiopian-restaurant-oakland,https://www.instagram.com/barcote_restaurant,https://www.facebook.com/BarcoteRestaurant/,Oakland,East Bay,Ethiopian,Y,,,,,,,,"Takeout, Delivery",Y,Y,,,
Rasa Caffe,"3140 Martin Luther King Jr Way, Berkeley, CA 94703",37.850993,-122.271016,,www.rasacaffe.com/,https://www.yelp.com/biz/rasa-caffe-berkeley,https://www.instagram.com/rasacaffe,https://www.facebook.com/rasacaffeberkeley/,Berkeley,East Bay,Coffee,,,,,,,Y,,Takeout,Y,,,,
Kaffa Ethiopian,"2987 Sacramento St, Berkeley, CA 94702",37.8536,-122.278818,(510) 677-5822,,https://www.yelp.com/biz/kaffa-ethiopian-cuisine-berkeley-2,https://www.instagram.com/kaffaethiopiancuisine,,Berkeley,East Bay,Ethiopian,Y,,,,,,,,Takeout,Y,,,,
Cali Alley,"1012 Grayson St, Berkeley, CA 94710",37.855692,-122.289434,(510) 644-4473,www.calialley.com,https://www.yelp.com/biz/cali-alley-berkeley-2,https://www.instagram.com/cali.alley,https://www.facebook.com/calialley510/,Berkeley,East Bay,"Caribbean, American",,Y,Y,,,,,,"Takeout, Delivery",Y,Y,,,
Ethiopia Restaurant,"2955 Telegraph Ave, Berkeley, CA 94705",37.856772,-122.25915,(510) 843-1992,http://orderethiopiarestaurant.com/,https://www.yelp.com/biz/ethiopia-restaurant-berkeley,,https://www.facebook.com/pages/category/Ethiopian-Restaurant/Ethiopia-Restaurant-365696990200884/,Berkeley,East Bay,Ethiopian,Y,,,,,,,,"Takeout, Delivery",Y,Y,,,
Nabolom Bakery and Pizzeria,"2708 Russell St, Berkeley, CA 94705",37.85838,-122.252963,(510) 845-2253,https://www.nabolombakery.com/,https://www.yelp.com/biz/nabolom-bakery-berkeley-3,https://www.instagram.com/nabolombakery,https://www.facebook.com/pages/category/Bakery/Nabolom-Bakery-Pizzeria-114418938587370/,Berkeley,East Bay,"Bakery, Pizza",,,,,,Y,,Y,Takeout,Y,,,,
Anthony's Cookies,"2575 San Pablo Ave, Berkeley, CA 94702",37.859956,-122.288696,(510) 833-2469,http://anthonyscookies.com,https://www.yelp.com/biz/anthonys-cookies-berkeley,https://www.instagram.com/anthonyscookies,https://www.facebook.com/Anthonys-Cookies-110621668978801/,Berkeley,East Bay,Dessert,,,,,,Y,,,Takeout,Y,,,,
Nuttin' Butter Cookies,"2521 San Pablo Ave, Berkeley, CA 94702",37.860743,-122.289095,(510) 610-2303,www.nuttinbuttercookies.com,https://www.yelp.com/biz/nuttin-butter-cookies-berkeley,https://www.instagram.com/nuttin_buttercookies,https://www.facebook.com/NuttinButters,Berkeley,East Bay,Dessert,,,,,,Y,,,"Takeout, Delivery",Y,Y,,,
Addis Ethiopian,"6100 Telegraph Ave, Berkeley, CA 94705",37.861059,-122.258999,(510) 653-3456,https://addisethiopian.com/blog/,https://www.yelp.com/biz/addis-ethiopian-restaurant-oakland,,https://www.facebook.com/AddisEthiopian/,Oakland,East Bay,Ethiopian,Y,,,,,,,,"Takeout, Delivery",Y,Y,,,
Selam,"2786 Martin Luther King Jr Way, Oakland, CA 94612",37.862604,-122.272216,(510) 817-4175,,https://www.yelp.com/biz/selam-oakland,,,Oakland,East Bay,Ethiopian,Y,,,,,,,,Takeout,Y,,,,
FinFine,"2556 Telegraph Ave, Berkeley, CA 94704",37.863919,-122.258941,(510) 883-167,www.finfine.com,https://www.yelp.com/biz/finfine-ethiopian-restaurant-berkeley,,,Berkeley,East Bay,Ethiopian,Y,,,,,,,,Temporarily Closed,,,,Y,
Cupcakin' Bake Shop,"2391 Telegraph Ave Berkeley, CA 94704",37.867238,-122.258575,(510) 529-4488,https://cupcakinbakeshop.com/,https://www.yelp.com/biz/cupcakin-bake-shop-berkeley,https://www.instagram.com/cupcakinbakeshop,https://www.facebook.com/cupcakinbakeshop/,Berkeley,East Bay,Dessert,,,,,,Y,,,"Takeout, Delivery",Y,Y,,,
A Girl Named Pinky,"2495 Bancroft Way, Berkeley, CA 94704",37.869107,-122.259652,(510) 631-6174,www.agirlnamedpinky.com/,https://www.yelp.com/biz/a-girl-named-pinky-cake-boutique-berkeley,https://www.instagram.com/agirlnamedpinky,https://www.facebook.com/AGirlNamedPinky/,Berkeley,East Bay,Dessert,,,,,,Y,,,Delivery,,Y,,,
Pinky and Red's,"2495 Bancroft Way, Berkeley, CA 94720",37.869107,-122.259652,(510) 255-1516,www.pinkyandreds.com/,https://www.yelp.com/biz/pinky-and-reds-berkeley,https://www.instagram.com/pinkyandreds,,Berkeley,East Bay,American,,,Y,,,,,,Temporarily Closed,,,,Y,
Everett & Jones Barbeque,"1955 San Pablo Ave, Berkeley, CA 94702",37.869704,-122.292038,(510) 548-8261,https://eandjbbq.com/,https://www.yelp.com/biz/everett-and-jones-berkeley,https://www.instagram.com/eandjberkeley,https://www.facebook.com/EverettandJonesBerkeley/,Berkeley,East Bay,Barbecue,,,,,Y,,,,"Takeout, Catering",Y,,Y,,
KC's BBQ,"1235 San Pablo Ave, Berkeley, CA 94706",37.881083,-122.295641,(510) 526-6325,www.kcsbbq.com,https://www.yelp.com/biz/kcs-bbq-berkeley-2,https://www.instagram.com/kcsbbq,https://www.facebook.com/kcsbbqberkeley/,Berkeley,East Bay,Barbecue,,,,,Y,,,,"Takeout, Delivery",Y,Y,,,
R&ecircve Bistro,"960 Moraga Rd F, Lafayette, CA 94549",37.890485,-122.118137,(925) 385-793,http://revebistro.com/,https://www.yelp.com/biz/r%C3%AAve-lafayette-3,https://www.instagram.com/revebistro,https://www.facebook.com/revebistro/,Lafayette,East Bay,French,,,,,,,,Y,Takeout,Y,,,,
Mr. C's and Lizzy's Cajun Cafe,"1254 Solano Ave, Albany, CA 94706",37.89054,-122.29353,(510) 525-2440,,,,https://www.facebook.com/mrcsforhair/,Albany,East Bay,Cajun,,,,Y,,,,,Takeout,Y,,,,
Juanita and Maude,"825 San Pablo Ave, Albany, CA 94706",37.89099,-122.29879,(510) 526-2233,www.juanitaandmaude.com/,https://www.yelp.com/biz/juanita-and-maude-albany,https://www.instagram.com/juanitaandmaude,https://www.facebook.com/juanitaandmaude/,Albany,East Bay,"Californian, Global",,,Y,,,,,Y,Takeout,Y,,,,
Snapper's Seafood,"1501 Ohio Ave, Richmond, CA 94804",37.930986,-122.355113,(888) 707-2469,https://snappersseafoodrestaurant.com/,https://www.yelp.com/biz/the-new-snappers-seafood-restaurant-richmond,https://www.instagram.com/explore/locations/268484290/snapper-seafood,https://www.facebook.com/1424Kill,Richmond,East Bay,Southern,,,,Y,,,,,"Takeout, Delivery",Y,Y,,,
CJ's BBQ and Fish,"2401 Macdonald Ave A, Richmond, CA 94804",37.935775,-122.346076,(510) 235-7471,,https://www.yelp.com/biz/c-js-bbq-and-fish-richmond,https://www.instagram.com/explore/locations/8495297/,,Richmond,East Bay,"Barbecue, Southern",,,,Y,Y,,,,Takeout,Y,,,,
Roux,"1503 Macdonald Ave, Richmond, CA 94804",37.935874,-122.355057,(510) 514-6068,https://www.rouxbayarea.com/,https://www.yelp.com/biz/roux-richmond-3,https://www.instagram.com/roux_bayarea,https://www.facebook.com/pages/category/Cajun---Creole-Restaurant/Roux-111227600243537/,Richmond,East Bay,Creole,,Y,,,,,,,"Takeout, Delivery",Y,Y,,,
Mississippi Catfish,"12440 San Pablo Ave, Richmond, CA 94805",37.939187,-122.326482,(510) 215-2526,,https://www.yelp.com/biz/mississippi-catfish-richmond,,https://www.facebook.com/Mississippi-Catfish-161683020526351/,Richmond,East Bay,Southern,,,,Y,,,,,Takeout,Y,,,,
Chris' Kitchen Soul Food,"1260 Rumrill Blvd, San Pablo, CA 94806",37.95177,-122.356884,(510) 235-9117,https://chris-kitchen-soul-food.business.site/,https://www.yelp.com/biz/chriss-kitchen-soul-food-san-pablo,,https://www.facebook.com/pages/category/Community-Organization/Chriss-Kitchen-Soul-Food-272675530209260/,San Pablo,East Bay,Southern,,,,Y,,,,,"Takeout, Delivery",Y,Y,,,
Splash Tea,"3540 Clayton Rd, Concord, CA 94519",37.970349,-122.011359,(925) 349-9308,https://splashtea.square.site/s/order,https://www.yelp.com/biz/splash-tea-concord-2,https://www.instagram.com/splashtea,https://www.facebook.com/splashbobatea/,Concord,East Bay,Bubble Tea,,,,,,,Y,,Takeout,Y,,,,
Concord Tap House,"3513 Clayton Rd, Concord, CA 94519",37.971434,-122.011915,(925) 685-8585,https://concordtaphouse.com/,https://www.yelp.com/biz/concord-tap-house-concord,https://www.instagram.com/concordtaphouse,https://www.facebook.com/concordtaphouse/,Concord,East Bay,"Southern, Filipino",,,,Y,,,,Y,Takeout,Y,,,,
Big Country Kitchen,"3399 Clayton Rd, Concord, CA 94519",37.971983,-122.015113,(925) 822-3009,www.bigcountrykitchenllc.com,https://www.yelp.com/biz/big-country-kitchen-concord-3,https://www.instagram.com/bigcountrykitchenllc,https://www.facebook.com/Bigcountrykitchenllc/,Concord,East Bay,Southern,,,,Y,,,,,Takeout,Y,,,,
Caribbean Spices,"819 4th St, San Rafael, CA 94901",37.972517,-122.524404,(415) 299-2680,https://carribeanspicesdba.net/,https://www.yelp.com/biz/caribbean-spices-san-rafael-2,https://www.instagram.com/carribeanspices,https://www.facebook.com/carribeanspicesfoodtruck/,San Rafael,North Bay,Caribbean,,Y,,,,,,,"Takeout, Catering",Y,,Y,,
The Lettuce Inn,"2115 Pacheco St, Concord, CA 94520",37.97864,-122.035116,(925) 338-9636,http://thelettuceinn.com/,https://www.yelp.com/biz/the-lettuce-inn-concord-6,https://www.instagram.com/thelettuceinn,https://www.facebook.com/Headlettuce33/,Concord,East Bay,Health Food,,,,,,,,Y,"Takeout, Delivery in Concord",Y,Y,,,
Southern Express Soul Food,"3100 Contra Loma Blvd, Antioch, CA 94509",37.991943,-121.822624,(925) 322-4932,https://southern-express.business.site/,https://www.yelp.com/biz/southern-express-soul-food-antioch-2,https://www.instagram.com/southern_express_,https://www.facebook.com/TheSoulFoodExperienc/,Antioch,East Bay,Southern,,,,Y,,,,,"Takeout, Delivery",Y,Y,,,
Pure Juice & Smoothie Lounge,"3375 Port Chicago Hwy, Concord, CA 94520",37.994786,-122.032283,(925) 375-1376,www.purejuiceandsmoothie.com/,https://www.yelp.com/biz/pure-juice-and-smoothie-lounge-concord-4,https://www.instagram.com/purejuicelounge,https://www.facebook.com/purejuiceloungeconcord/,Concord,East Bay,Juice,,,,,,,Y,,Takeout,Y,,,,
Omar's Chicken and Waffles,"4399 Century Blvd, Pittsburg, CA 94565",38.006349,-121.839774,(925) 777-3312,www.omarschickenandwaffles.com/,https://www.yelp.com/biz/omars-chicken-and-waffles-pittsburg,,https://www.facebook.com/pages/category/Restaurant/Omars-Chicken-Waffles-445687116232772/,Pittsburg,East Bay,Southern,,,,Y,,,,,"Takeout, Delivery",Y,Y,,,
Freddy B's BBQ,"1803 W 10th St, Antioch, California 94509",38.01239,-121.8295,(925) 732-3113,,https://www.yelp.com/biz/freddy-bs-bbq-antioch-2,https://www.instagram.com/freddybeesbbq,https://www.facebook.com/pages/category/Product-Service/Freddy-B-BBQ-1035975536578276/,Antioch,East Bay,Barbecue,,,,,Y,,,,"Takeout, Delivery",Y,Y,,,
Southern Cafe,"400 G St, Antioch, CA 94509",38.01556,-121.813859,(925) 754-1172,http://southerncafe2000.com/,https://www.yelp.com/biz/southern-cafe-antioch,https://www.instagram.com/southerncafe400,https://www.facebook.com/SouthernCafeAntiochCa/,Antioch,East Bay,Southern,,,,Y,,,,,Temporarily Closed,,,,Y,
Solid Rock Cafe,"422 W 2nd St, Antioch, CA 94509",38.017268,-121.812472,(925) 481-2706,www.solidrockcafe.us/,https://www.yelp.com/biz/solid-rock-cafe-antioch,,https://www.facebook.com/SolidRockCafeAntioch/,Antioch,East Bay,"American, Cajun",,,Y,Y,,,,,"Takeout, Delivery",Y,Y,,,
Firehouse Brew & Grill,"611 Escobar St, Martinez, CA 94553",38.017734,-122.137708,(925) 228-8787,https://firehousemartinez.com/,https://www.yelp.com/biz/firehouse-brew-and-grill-martinez,https://www.instagram.com/firehousemartinez,https://www.facebook.com/FirehouseMartinez/,Martinez,East Bay,American,,,Y,,,,,,Temporarily Closed,,,,Y,
Pitts Pig BBQ,"785 Railroad Ave, Pittsburg, CA 94565",38.02962,-121.88434,(925) 267-3225,,https://www.yelp.com/biz/pitt-s-pig-bbq-pittsburg,https://www.instagram.com/pittspigbbq,https://www.facebook.com/pittspigbbq/,Pittsburg,East Bay,Barbecue,,,,,Y,,,,Takeout,Y,,,,
Forrest Fire BBQ,"155 Marinwood Ave, San Rafael, California 94903",38.032681,-122.538889,(628) 800-3473,www.forrestfirebbq.com,https://www.yelp.com/biz/forrest-fire-bbq-san-rafael-2,https://www.instagram.com/forrestfirebbq,https://www.facebook.com/forrestfirebbq/,San Rafael,North Bay,Barbecue,,,,,Y,,,,Takeout,Y,,,,
Sugartown Cafe,"611 2nd Ave, Crockett, CA 94525",38.053486,-122.223551,(510) 722-3220,www.sugartowncafe.com/,https://www.yelp.com/biz/the-cafe-at-sugartown-sweet-shoppe-crockett-3,https://www.instagram.com/sugartowncafe,https://www.facebook.com/sugartowncafe/,Crockett,East Bay,Coffee,,,,,,,Y,,Temporarily Closed,,,,Y,
RedRing Ribs,"656 Benicia Rd, Vallejo, CA 94591",38.094693,-122.228336,(707) 310-5064,,https://www.yelp.com/biz/red-ring-ribs-vallejo,https://www.instagram.com/red_ringribs,www.facebook.com/REDRINGRIBS/,Vallejo,North Bay,Barbecue,,,,,Y,,,,Takeout,Y,,,,
Noonie's Place,"301 Georgia St, Vallejo, CA 94590",38.100838,-122.257805,(707) 652-3348,https://nooniesplace707.square.site/,https://www.yelp.com/biz/noonies-place-707-vallejo,https://www.instagram.com/nooniesplace707,https://www.facebook.com/NooniesPlace707/,Vallejo,North Bay,"Southern, Dessert",,,,Y,,Y,,,"Takeout, Delivery",Y,Y,,,
House of Soul,"1526 Solano Ave, Vallejo, CA 94590",38.101665,-122.239243,(707) 644-3792,http://house-of-soul.cafe-inspector.com/,https://www.yelp.com/biz/house-of-soul-vallejo,,,Vallejo,North Bay,Southern,,,,Y,,,,,"Takeout, Delivery",Y,Y,,,
Ruthies Caribbean Kitchen,"2632 Sonoma Blvd, Vallejo, CA 94590",38.110817,-122.254545,(707) 731-452,https://ruthiescaribbeankitchen.business.site/,https://www.yelp.com/biz/ruthies-caribbean-kitchen-vallejo,https://www.instagram.com/ruthiescaribbeankitchen,https://www.facebook.com/ruthiescaribbeankitchen/,Vallejo,North Bay,Caribbean,,Y,,,,,,,Takeout,Y,,,,
Yes My Sweet,"2820 Sonoma Blvd, Vallejo, CA 94590",38.112571,-122.254305,(707) 731-2780,www.yesmysweet.com/,https://www.yelp.com/biz/yes-my-sweet-bbq-and-catering-vallejo-2,https://www.instagram.com/yesmysweetbbq,https://www.facebook.com/yesmysweetbbq/,Vallejo,North Bay,Barbecue,,,,,Y,,,,"Takeout, Catering",Y,,Y,,
Hummingbird Bakery & Dessert Bar,"3272 Sonoma Blvd, Vallejo, CA 94590",38.117807,-122.253894,(707) 644-4885,www.hummingbirddesserts.com/,https://www.yelp.com/biz/hummingbird-bakery-and-dessert-bar-vallejo,,https://www.facebook.com/Hummingbirdbakerydessertbar/,Vallejo,North Bay,Dessert,,,,,,Y,,,Takeout,Y,,,,
Spicy Girl Meal Prep,"1922 Broadway St, Vallejo, CA 94589",38.137517,-122.252034,(707) 400-8599,www.spicygirlmealprep.com/,https://www.yelp.com/biz/spicy-girl-meal-prep-vallejo-3,https://www.instagram.com/spicygirlmealprep,https://www.facebook.com/SpicyGirlMealPrep/,Vallejo,North Bay,Health Food,,,,,,,,Y,Catering,,,Y,,
CJ's BBQ and Fish,"4380 Sonoma Blvd, Vallejo, CA 94589",38.137632,-122.254973,(707) 643-4016,,https://www.yelp.com/biz/cjs-bbq-and-fish-vallejo,https://www.instagram.com/explore/locations/8495297/,,Vallejo,North Bay,"Barbecue, Southern",,,,Y,Y,,,,Takeout,Y,,,,
Street Social,"29 F Petaluma Blvd N, Petaluma, CA 94952",38.233603,-122.640354,(707) 772-6185,www.streetsocial.social,https://www.yelp.com/biz/street-social-petaluma,https://www.instagram.com/street_social,https://www.facebook.com/StreetSocialStreetSocial/,Petaluma,North Bay,Californian,,,Y,,,,,,Dine-in,,,,,Y
Chez Soul Southern Cuisine,"711 Madison St, Fairfield, CA 94533",38.249815,-122.046283,(707) 427-3338,www.chezsoulsoutherncuisine.com/,https://www.yelp.com/biz/chez-soul-southern-cuisine-fairfield,https://www.instagram.com/chezsoul,https://www.facebook.com/chezsoul/,Fairfield,North Bay,Southern,,,,Y,,,,,"Takeout, Delivery",Y,Y,,,
Corner 103,"103 W Napa St, Sonoma, CA 95476",38.291905,-122.459296,(707) 931-6141,www.corner103.com/,https://www.yelp.com/biz/corner-103-sonoma,https://www.instagram.com/corner103,https://www.facebook.com/Corner103/,Sonoma,North Bay,Wine,,,,,,,Y,,"Takeout, Shipping",Y,,,,
Red Rose Catering,"600 Martin Ave, Rohnert Park, CA 94928",38.354421,-122.725032,(707) 687-9014,www.theredrosecatering.com/,https://www.yelp.com/biz/red-rose-catering-no-title,,https://www.facebook.com/Redrosecater/,Santa Rosa,North Bay,Southern,,,,Y,,,,,"Delivery, Catering",,Y,Y,,
Pack Jack's BBQ,"3963 Gravenstein Hwy S, Sebastopol, CA 95472",38.361672,-122.77681,(707) 827-3665,,https://www.yelp.com/biz/pack-jack-bar-b-que-inn-sebastopol,https://www.instagram.com/explore/locations/9444695/pack-jacks-bbq,www.facebook.com/PackJackBBQ,Sebastopol,North Bay,Barbecue,,,,,Y,,,,Takeout,Y,,,,
Cafe Frida Gallery,"300 South A St, Santa Rosa, CA 95401",38.433964,-122.714733,(707) 308-4344,www.cafefridagallery.com/,https://www.yelp.com/biz/café-frida-gallery-santa-rosa,https://www.instagram.com/cafefridagallery,https://www.facebook.com/cafefridagallery/,Santa Rosa,North Bay,Global,,,,,,,,Y,Takeout,Y,,,,
My Abyssinia,"913 4th St, Santa Rosa, CA 95404",38.4435,-122.70776,(707) 568-6455,www.my-abyssinia.com/,https://www.yelp.com/biz/abyssinia-restaurant-santa-rosa,,,Santa Rosa,North Bay,Ethiopian,Y,,,,,,,,Takeout,Y,,,,
Sonoma Crust,"1040 N Dutton Ave, Santa Rosa, CA 95401",38.44377,-122.730132,(707) 477-4510,http://sonomacrust.com/,https://www.yelp.com/biz/sonoma-crust-santa-rosa,https://www.instagram.com/sonomacrust,https://www.facebook.com/Sonomacrust/,Santa Rosa,North Bay,Southern,,,,Y,,,,,"Takeout, Catering",Y,,Y,,
Brown Estate,"3233 Sage Canyon Rd, St Helena, CA 94574",38.504362,-122.275289,(707) 963-2435,www.brownestate.com/,https://www.yelp.com/biz/brown-estate-vineyards-st-helena,https://www.instagram.com/brownestate,https://www.facebook.com/brownestate/,Napa,North Bay,Wine,,,,,,,Y,,"Takeout, wine shipping",Y,,,,Y
Buster's Southern BBQ,"1207 Foothill Blvd, Calistoga, CA 94515",38.575143,-122.580959,(707) 942-5605,www.busterssouthernbbq.com/,https://www.yelp.com/biz/busters-southern-bbq-calistoga-3,https://www.instagram.com/busterssouthernbbq,https://www.facebook.com/busterssouthernbbq/,Calistoga,North Bay,Barbecue,,,,,Y,,,,"Takeout, Outdoor Dine-in",Y,,,,Y
Bodkin Wines,"1083 Vine St, Healdsburg, CA 95448",38.608444,-122.872952,,www.bodkinwines.com/,,https://www.instagram.com/bodkinwines,,Healdsburg,North Bay,Wine,,,,,,,Y,,Delivery,,Y,,,
